<?xml version="1.0" encoding="UTF-8"?>
<gpx xmlns="http://www.topografix.com/GPX/1/1" xmlns:gpxtpx="http://www.garmin.com/xmlschemas/TrackPointExtension/v1" xmlns:xsi="http://www.w3.org/2001/XMLSchema-instance" xsi:schemaLocation="http://www.topografix.com/GPX/1/1 http://www.topografix.com/GPX/1/1/gpx.xsd" version="1.1" creator="gpx.py -- https://github.com/tkrajina/gpxpy">
  <trk>
    <name>gpx from joyrun 1787996647</name>
    <trkseg>
      <trkpt lat="22.753678" lon="113.94124">
        <ele>50.11</ele>
        <time>2026-08-29T09:44:07Z</time>
        <extensions>
          <gpxtpx:TrackPointExtension></gpxtpx:TrackPointExtension>
        </extensions>
      </trkpt>
      <trkpt lat="22.753679" lon="113.941236">
        <ele>50.0</ele>
        <time>2026-08-29T09:44:12Z</time>
        <extensions>
          <gpxtpx:TrackPointExtension></gpxtpx:TrackPointExtension>
        </extensions>
      </trkpt>
      <trkpt lat="22.753761" lon="113.94117">
        <ele>50.27</ele>
        <time>2026-08-29T09:44:17Z</time>
        <extensions>
          <gpxtpx:TrackPointExtension></gpxtpx:TrackPointExtension>
        </extensions>
      </trkpt>
      <trkpt lat="22.753773" lon="113.941156">
        <ele>50.72</ele>
        <time>2026-08-29T09:44:22Z</time>
        <extensions>
          <gpxtpx:TrackPointExtension></gpxtpx:TrackPointExtension>
        </extensions>
      </trkpt>
      <trkpt lat="22.753939" lon="113.94103">
        <ele>51.28</ele>
        <time>2026-08-29T09:44:27Z</time>
        <extensions>
          <gpxtpx:TrackPointExtension></gpxtpx:TrackPointExtension>
        </extensions>
      </trkpt>
      <trkpt lat="22.753952" lon="113.940997">
        <ele>51.78</ele>
        <time>2026-08-29T09:44:32Z</time>
        <extensions>
          <gpxtpx:TrackPointExtension></gpxtpx:TrackPointExtension>
        </extensions>
      </trkpt>
      <trkpt lat="22.753997" lon="113.940867">
        <ele>52.09</ele>
        <time>2026-08-29T09:44:37Z</time>
        <extensions>
          <gpxtpx:TrackPointExtension></gpxtpx:TrackPointExtension>
        </extensions>
      </trkpt>
      <trkpt lat="22.754012" lon="113.94073">
        <ele>52.51</ele>
        <time>2026-08-29T09:44:42Z</time>
        <extensions>
          <gpxtpx:TrackPointExtension></gpxtpx:TrackPointExtension>
        </extensions>
      </trkpt>
      <trkpt lat="22.753997" lon="113.94057">
        <ele>52.55</ele>
        <time>2026-08-29T09:44:47Z</time>
        <extensions>
          <gpxtpx:TrackPointExtension></gpxtpx:TrackPointExtension>
        </extensions>
      </trkpt>
      <trkpt lat="22.753974" lon="113.940435">
        <ele>51.99</ele>
        <time>2026-08-29T09:44:52Z</time>
        <extensions>
          <gpxtpx:TrackPointExtension></gpxtpx:TrackPointExtension>
        </extensions>
      </trkpt>
      <trkpt lat="22.753899" lon="113.940247">
        <ele>51.19</ele>
        <time>2026-08-29T09:44:57Z</time>
        <extensions>
          <gpxtpx:TrackPointExtension></gpxtpx:TrackPointExtension>
        </extensions>
      </trkpt>
      <trkpt lat="22.753861" lon="113.940163">
        <ele>50.15</ele>
        <time>2026-08-29T09:45:02Z</time>
        <extensions>
          <gpxtpx:TrackPointExtension></gpxtpx:TrackPointExtension>
        </extensions>
      </trkpt>
      <trkpt lat="22.753753" lon="113.94008">
        <ele>49.6</ele>
        <time>2026-08-29T09:45:07Z</time>
        <extensions>
          <gpxtpx:TrackPointExtension></gpxtpx:TrackPointExtension>
        </extensions>
      </trkpt>
      <trkpt lat="22.753605" lon="113.94007">
        <ele>49.49</ele>
        <time>2026-08-29T09:45:12Z</time>
        <extensions>
          <gpxtpx:TrackPointExtension></gpxtpx:TrackPointExtension>
        </extensions>
      </trkpt>
      <trkpt lat="22.753403" lon="113.940073">
        <ele>49.33</ele>
        <time>2026-08-29T09:45:17Z</time>
        <extensions>
          <gpxtpx:TrackPointExtension></gpxtpx:TrackPointExtension>
        </extensions>
      </trkpt>
      <trkpt lat="22.753253" lon="113.940103">
        <ele>49.49</ele>
        <time>2026-08-29T09:45:22Z</time>
        <extensions>
          <gpxtpx:TrackPointExtension></gpxtpx:TrackPointExtension>
        </extensions>
      </trkpt>
      <trkpt lat="22.753065" lon="113.940152">
        <ele>49.42</ele>
        <time>2026-08-29T09:45:27Z</time>
        <extensions>
          <gpxtpx:TrackPointExtension></gpxtpx:TrackPointExtension>
        </extensions>
      </trkpt>
      <trkpt lat="22.752935" lon="113.940165">
        <ele>49.09</ele>
        <time>2026-08-29T09:45:32Z</time>
        <extensions>
          <gpxtpx:TrackPointExtension></gpxtpx:TrackPointExtension>
        </extensions>
      </trkpt>
      <trkpt lat="22.752815" lon="113.940163">
        <ele>48.99</ele>
        <time>2026-08-29T09:45:37Z</time>
        <extensions>
          <gpxtpx:TrackPointExtension></gpxtpx:TrackPointExtension>
        </extensions>
      </trkpt>
      <trkpt lat="22.752702" lon="113.940165">
        <ele>49.03</ele>
        <time>2026-08-29T09:45:42Z</time>
        <extensions>
          <gpxtpx:TrackPointExtension></gpxtpx:TrackPointExtension>
        </extensions>
      </trkpt>
      <trkpt lat="22.752568" lon="113.940171">
        <ele>48.94</ele>
        <time>2026-08-29T09:45:47Z</time>
        <extensions>
          <gpxtpx:TrackPointExtension></gpxtpx:TrackPointExtension>
        </extensions>
      </trkpt>
      <trkpt lat="22.752478" lon="113.940184">
        <ele>48.9</ele>
        <time>2026-08-29T09:45:52Z</time>
        <extensions>
          <gpxtpx:TrackPointExtension></gpxtpx:TrackPointExtension>
        </extensions>
      </trkpt>
      <trkpt lat="22.752367" lon="113.940228">
        <ele>48.88</ele>
        <time>2026-08-29T09:45:57Z</time>
        <extensions>
          <gpxtpx:TrackPointExtension></gpxtpx:TrackPointExtension>
        </extensions>
      </trkpt>
      <trkpt lat="22.752241" lon="113.940253">
        <ele>48.59</ele>
        <time>2026-08-29T09:46:02Z</time>
        <extensions>
          <gpxtpx:TrackPointExtension></gpxtpx:TrackPointExtension>
        </extensions>
      </trkpt>
      <trkpt lat="22.752096" lon="113.940258">
        <ele>48.57</ele>
        <time>2026-08-29T09:46:07Z</time>
        <extensions>
          <gpxtpx:TrackPointExtension></gpxtpx:TrackPointExtension>
        </extensions>
      </trkpt>
      <trkpt lat="22.751885" lon="113.940181">
        <ele>48.64</ele>
        <time>2026-08-29T09:46:12Z</time>
        <extensions>
          <gpxtpx:TrackPointExtension></gpxtpx:TrackPointExtension>
        </extensions>
      </trkpt>
      <trkpt lat="22.751828" lon="113.940135">
        <ele>48.68</ele>
        <time>2026-08-29T09:46:17Z</time>
        <extensions>
          <gpxtpx:TrackPointExtension></gpxtpx:TrackPointExtension>
        </extensions>
      </trkpt>
      <trkpt lat="22.751713" lon="113.939955">
        <ele>48.66</ele>
        <time>2026-08-29T09:46:22Z</time>
        <extensions>
          <gpxtpx:TrackPointExtension></gpxtpx:TrackPointExtension>
        </extensions>
      </trkpt>
      <trkpt lat="22.751678" lon="113.939898">
        <ele>48.73</ele>
        <time>2026-08-29T09:46:27Z</time>
        <extensions>
          <gpxtpx:TrackPointExtension></gpxtpx:TrackPointExtension>
        </extensions>
      </trkpt>
      <trkpt lat="22.751698" lon="113.939674">
        <ele>48.79</ele>
        <time>2026-08-29T09:46:32Z</time>
        <extensions>
          <gpxtpx:TrackPointExtension></gpxtpx:TrackPointExtension>
        </extensions>
      </trkpt>
      <trkpt lat="22.75171" lon="113.939629">
        <ele>48.85</ele>
        <time>2026-08-29T09:46:37Z</time>
        <extensions>
          <gpxtpx:TrackPointExtension></gpxtpx:TrackPointExtension>
        </extensions>
      </trkpt>
      <trkpt lat="22.751713" lon="113.939508">
        <ele>48.85</ele>
        <time>2026-08-29T09:46:42Z</time>
        <extensions>
          <gpxtpx:TrackPointExtension></gpxtpx:TrackPointExtension>
        </extensions>
      </trkpt>
      <trkpt lat="22.751697" lon="113.939374">
        <ele>48.65</ele>
        <time>2026-08-29T09:46:47Z</time>
        <extensions>
          <gpxtpx:TrackPointExtension></gpxtpx:TrackPointExtension>
        </extensions>
      </trkpt>
      <trkpt lat="22.751644" lon="113.939271">
        <ele>48.25</ele>
        <time>2026-08-29T09:46:52Z</time>
        <extensions>
          <gpxtpx:TrackPointExtension></gpxtpx:TrackPointExtension>
        </extensions>
      </trkpt>
      <trkpt lat="22.751613" lon="113.939162">
        <ele>47.99</ele>
        <time>2026-08-29T09:46:57Z</time>
        <extensions>
          <gpxtpx:TrackPointExtension></gpxtpx:TrackPointExtension>
        </extensions>
      </trkpt>
      <trkpt lat="22.75157" lon="113.939031">
        <ele>47.71</ele>
        <time>2026-08-29T09:47:02Z</time>
        <extensions>
          <gpxtpx:TrackPointExtension></gpxtpx:TrackPointExtension>
        </extensions>
      </trkpt>
      <trkpt lat="22.751526" lon="113.938913">
        <ele>47.52</ele>
        <time>2026-08-29T09:47:07Z</time>
        <extensions>
          <gpxtpx:TrackPointExtension></gpxtpx:TrackPointExtension>
        </extensions>
      </trkpt>
      <trkpt lat="22.751564" lon="113.938761">
        <ele>47.37</ele>
        <time>2026-08-29T09:47:12Z</time>
        <extensions>
          <gpxtpx:TrackPointExtension></gpxtpx:TrackPointExtension>
        </extensions>
      </trkpt>
      <trkpt lat="22.751604" lon="113.938622">
        <ele>47.3</ele>
        <time>2026-08-29T09:47:17Z</time>
        <extensions>
          <gpxtpx:TrackPointExtension></gpxtpx:TrackPointExtension>
        </extensions>
      </trkpt>
      <trkpt lat="22.751711" lon="113.938558">
        <ele>47.24</ele>
        <time>2026-08-29T09:47:22Z</time>
        <extensions>
          <gpxtpx:TrackPointExtension></gpxtpx:TrackPointExtension>
        </extensions>
      </trkpt>
      <trkpt lat="22.751793" lon="113.938466">
        <ele>47.05</ele>
        <time>2026-08-29T09:47:27Z</time>
        <extensions>
          <gpxtpx:TrackPointExtension></gpxtpx:TrackPointExtension>
        </extensions>
      </trkpt>
      <trkpt lat="22.75191" lon="113.938371">
        <ele>46.94</ele>
        <time>2026-08-29T09:47:32Z</time>
        <extensions>
          <gpxtpx:TrackPointExtension></gpxtpx:TrackPointExtension>
        </extensions>
      </trkpt>
      <trkpt lat="22.752002" lon="113.938308">
        <ele>46.67</ele>
        <time>2026-08-29T09:47:37Z</time>
        <extensions>
          <gpxtpx:TrackPointExtension></gpxtpx:TrackPointExtension>
        </extensions>
      </trkpt>
      <trkpt lat="22.75213" lon="113.938201">
        <ele>46.39</ele>
        <time>2026-08-29T09:47:42Z</time>
        <extensions>
          <gpxtpx:TrackPointExtension></gpxtpx:TrackPointExtension>
        </extensions>
      </trkpt>
      <trkpt lat="22.752265" lon="113.938104">
        <ele>46.3</ele>
        <time>2026-08-29T09:47:47Z</time>
        <extensions>
          <gpxtpx:TrackPointExtension></gpxtpx:TrackPointExtension>
        </extensions>
      </trkpt>
      <trkpt lat="22.752365" lon="113.937991">
        <ele>46.3</ele>
        <time>2026-08-29T09:47:52Z</time>
        <extensions>
          <gpxtpx:TrackPointExtension></gpxtpx:TrackPointExtension>
        </extensions>
      </trkpt>
      <trkpt lat="22.752433" lon="113.937863">
        <ele>46.34</ele>
        <time>2026-08-29T09:47:57Z</time>
        <extensions>
          <gpxtpx:TrackPointExtension></gpxtpx:TrackPointExtension>
        </extensions>
      </trkpt>
      <trkpt lat="22.7525" lon="113.937696">
        <ele>46.48</ele>
        <time>2026-08-29T09:48:02Z</time>
        <extensions>
          <gpxtpx:TrackPointExtension></gpxtpx:TrackPointExtension>
        </extensions>
      </trkpt>
      <trkpt lat="22.752538" lon="113.937583">
        <ele>46.59</ele>
        <time>2026-08-29T09:48:07Z</time>
        <extensions>
          <gpxtpx:TrackPointExtension></gpxtpx:TrackPointExtension>
        </extensions>
      </trkpt>
      <trkpt lat="22.752537" lon="113.937423">
        <ele>46.76</ele>
        <time>2026-08-29T09:48:12Z</time>
        <extensions>
          <gpxtpx:TrackPointExtension></gpxtpx:TrackPointExtension>
        </extensions>
      </trkpt>
      <trkpt lat="22.752516" lon="113.937262">
        <ele>46.73</ele>
        <time>2026-08-29T09:48:17Z</time>
        <extensions>
          <gpxtpx:TrackPointExtension></gpxtpx:TrackPointExtension>
        </extensions>
      </trkpt>
      <trkpt lat="22.752437" lon="113.937091">
        <ele>46.77</ele>
        <time>2026-08-29T09:48:22Z</time>
        <extensions>
          <gpxtpx:TrackPointExtension></gpxtpx:TrackPointExtension>
        </extensions>
      </trkpt>
      <trkpt lat="22.752429" lon="113.937064">
        <ele>46.76</ele>
        <time>2026-08-29T09:48:27Z</time>
        <extensions>
          <gpxtpx:TrackPointExtension></gpxtpx:TrackPointExtension>
        </extensions>
      </trkpt>
      <trkpt lat="22.752348" lon="113.936945">
        <ele>46.8</ele>
        <time>2026-08-29T09:48:32Z</time>
        <extensions>
          <gpxtpx:TrackPointExtension></gpxtpx:TrackPointExtension>
        </extensions>
      </trkpt>
      <trkpt lat="22.752242" lon="113.936852">
        <ele>46.85</ele>
        <time>2026-08-29T09:48:37Z</time>
        <extensions>
          <gpxtpx:TrackPointExtension></gpxtpx:TrackPointExtension>
        </extensions>
      </trkpt>
      <trkpt lat="22.752092" lon="113.936741">
        <ele>46.88</ele>
        <time>2026-08-29T09:48:42Z</time>
        <extensions>
          <gpxtpx:TrackPointExtension></gpxtpx:TrackPointExtension>
        </extensions>
      </trkpt>
      <trkpt lat="22.752022" lon="113.936694">
        <ele>46.27</ele>
        <time>2026-08-29T09:48:47Z</time>
        <extensions>
          <gpxtpx:TrackPointExtension></gpxtpx:TrackPointExtension>
        </extensions>
      </trkpt>
      <trkpt lat="22.751956" lon="113.93657">
        <ele>44.64</ele>
        <time>2026-08-29T09:48:52Z</time>
        <extensions>
          <gpxtpx:TrackPointExtension></gpxtpx:TrackPointExtension>
        </extensions>
      </trkpt>
      <trkpt lat="22.751916" lon="113.936438">
        <ele>43.7</ele>
        <time>2026-08-29T09:48:57Z</time>
        <extensions>
          <gpxtpx:TrackPointExtension></gpxtpx:TrackPointExtension>
        </extensions>
      </trkpt>
      <trkpt lat="22.751845" lon="113.936316">
        <ele>43.24</ele>
        <time>2026-08-29T09:49:02Z</time>
        <extensions>
          <gpxtpx:TrackPointExtension></gpxtpx:TrackPointExtension>
        </extensions>
      </trkpt>
      <trkpt lat="22.751704" lon="113.936274">
        <ele>43.01</ele>
        <time>2026-08-29T09:49:07Z</time>
        <extensions>
          <gpxtpx:TrackPointExtension></gpxtpx:TrackPointExtension>
        </extensions>
      </trkpt>
      <trkpt lat="22.75157" lon="113.936311">
        <ele>42.9</ele>
        <time>2026-08-29T09:49:12Z</time>
        <extensions>
          <gpxtpx:TrackPointExtension></gpxtpx:TrackPointExtension>
        </extensions>
      </trkpt>
      <trkpt lat="22.751416" lon="113.936345">
        <ele>43.01</ele>
        <time>2026-08-29T09:49:17Z</time>
        <extensions>
          <gpxtpx:TrackPointExtension></gpxtpx:TrackPointExtension>
        </extensions>
      </trkpt>
      <trkpt lat="22.751273" lon="113.936335">
        <ele>43.24</ele>
        <time>2026-08-29T09:49:22Z</time>
        <extensions>
          <gpxtpx:TrackPointExtension></gpxtpx:TrackPointExtension>
        </extensions>
      </trkpt>
      <trkpt lat="22.751129" lon="113.936317">
        <ele>43.13</ele>
        <time>2026-08-29T09:49:27Z</time>
        <extensions>
          <gpxtpx:TrackPointExtension></gpxtpx:TrackPointExtension>
        </extensions>
      </trkpt>
      <trkpt lat="22.75091" lon="113.93626">
        <ele>42.86</ele>
        <time>2026-08-29T09:49:32Z</time>
        <extensions>
          <gpxtpx:TrackPointExtension></gpxtpx:TrackPointExtension>
        </extensions>
      </trkpt>
      <trkpt lat="22.750858" lon="113.936232">
        <ele>42.57</ele>
        <time>2026-08-29T09:49:37Z</time>
        <extensions>
          <gpxtpx:TrackPointExtension></gpxtpx:TrackPointExtension>
        </extensions>
      </trkpt>
      <trkpt lat="22.750733" lon="113.93615">
        <ele>42.29</ele>
        <time>2026-08-29T09:49:42Z</time>
        <extensions>
          <gpxtpx:TrackPointExtension></gpxtpx:TrackPointExtension>
        </extensions>
      </trkpt>
      <trkpt lat="22.750619" lon="113.936059">
        <ele>42.05</ele>
        <time>2026-08-29T09:49:47Z</time>
        <extensions>
          <gpxtpx:TrackPointExtension></gpxtpx:TrackPointExtension>
        </extensions>
      </trkpt>
      <trkpt lat="22.750549" lon="113.935964">
        <ele>41.79</ele>
        <time>2026-08-29T09:49:52Z</time>
        <extensions>
          <gpxtpx:TrackPointExtension></gpxtpx:TrackPointExtension>
        </extensions>
      </trkpt>
      <trkpt lat="22.750495" lon="113.935841">
        <ele>41.58</ele>
        <time>2026-08-29T09:49:57Z</time>
        <extensions>
          <gpxtpx:TrackPointExtension></gpxtpx:TrackPointExtension>
        </extensions>
      </trkpt>
      <trkpt lat="22.750439" lon="113.935712">
        <ele>41.38</ele>
        <time>2026-08-29T09:50:02Z</time>
        <extensions>
          <gpxtpx:TrackPointExtension></gpxtpx:TrackPointExtension>
        </extensions>
      </trkpt>
      <trkpt lat="22.750389" lon="113.935507">
        <ele>41.3</ele>
        <time>2026-08-29T09:50:07Z</time>
        <extensions>
          <gpxtpx:TrackPointExtension></gpxtpx:TrackPointExtension>
        </extensions>
      </trkpt>
      <trkpt lat="22.750381" lon="113.935406">
        <ele>41.27</ele>
        <time>2026-08-29T09:50:12Z</time>
        <extensions>
          <gpxtpx:TrackPointExtension></gpxtpx:TrackPointExtension>
        </extensions>
      </trkpt>
      <trkpt lat="22.750391" lon="113.935282">
        <ele>41.26</ele>
        <time>2026-08-29T09:50:17Z</time>
        <extensions>
          <gpxtpx:TrackPointExtension></gpxtpx:TrackPointExtension>
        </extensions>
      </trkpt>
      <trkpt lat="22.750398" lon="113.935148">
        <ele>41.21</ele>
        <time>2026-08-29T09:50:22Z</time>
        <extensions>
          <gpxtpx:TrackPointExtension></gpxtpx:TrackPointExtension>
        </extensions>
      </trkpt>
      <trkpt lat="22.750358" lon="113.934895">
        <ele>41.32</ele>
        <time>2026-08-29T09:50:27Z</time>
        <extensions>
          <gpxtpx:TrackPointExtension></gpxtpx:TrackPointExtension>
        </extensions>
      </trkpt>
      <trkpt lat="22.750347" lon="113.934873">
        <ele>41.48</ele>
        <time>2026-08-29T09:50:32Z</time>
        <extensions>
          <gpxtpx:TrackPointExtension></gpxtpx:TrackPointExtension>
        </extensions>
      </trkpt>
      <trkpt lat="22.750267" lon="113.934751">
        <ele>42.15</ele>
        <time>2026-08-29T09:50:37Z</time>
        <extensions>
          <gpxtpx:TrackPointExtension></gpxtpx:TrackPointExtension>
        </extensions>
      </trkpt>
      <trkpt lat="22.750171" lon="113.934734">
        <ele>42.79</ele>
        <time>2026-08-29T09:50:42Z</time>
        <extensions>
          <gpxtpx:TrackPointExtension></gpxtpx:TrackPointExtension>
        </extensions>
      </trkpt>
      <trkpt lat="22.750099" lon="113.934813">
        <ele>43.34</ele>
        <time>2026-08-29T09:50:47Z</time>
        <extensions>
          <gpxtpx:TrackPointExtension></gpxtpx:TrackPointExtension>
        </extensions>
      </trkpt>
      <trkpt lat="22.750073" lon="113.934953">
        <ele>43.87</ele>
        <time>2026-08-29T09:50:52Z</time>
        <extensions>
          <gpxtpx:TrackPointExtension></gpxtpx:TrackPointExtension>
        </extensions>
      </trkpt>
      <trkpt lat="22.750086" lon="113.935105">
        <ele>44.32</ele>
        <time>2026-08-29T09:50:57Z</time>
        <extensions>
          <gpxtpx:TrackPointExtension></gpxtpx:TrackPointExtension>
        </extensions>
      </trkpt>
      <trkpt lat="22.750086" lon="113.935216">
        <ele>44.73</ele>
        <time>2026-08-29T09:51:02Z</time>
        <extensions>
          <gpxtpx:TrackPointExtension></gpxtpx:TrackPointExtension>
        </extensions>
      </trkpt>
      <trkpt lat="22.750093" lon="113.935332">
        <ele>45.15</ele>
        <time>2026-08-29T09:51:07Z</time>
        <extensions>
          <gpxtpx:TrackPointExtension></gpxtpx:TrackPointExtension>
        </extensions>
      </trkpt>
      <trkpt lat="22.750054" lon="113.935469">
        <ele>45.46</ele>
        <time>2026-08-29T09:51:12Z</time>
        <extensions>
          <gpxtpx:TrackPointExtension></gpxtpx:TrackPointExtension>
        </extensions>
      </trkpt>
      <trkpt lat="22.750002" lon="113.935609">
        <ele>45.66</ele>
        <time>2026-08-29T09:51:17Z</time>
        <extensions>
          <gpxtpx:TrackPointExtension></gpxtpx:TrackPointExtension>
        </extensions>
      </trkpt>
      <trkpt lat="22.749948" lon="113.935753">
        <ele>45.85</ele>
        <time>2026-08-29T09:51:22Z</time>
        <extensions>
          <gpxtpx:TrackPointExtension></gpxtpx:TrackPointExtension>
        </extensions>
      </trkpt>
      <trkpt lat="22.749922" lon="113.935911">
        <ele>46.08</ele>
        <time>2026-08-29T09:51:27Z</time>
        <extensions>
          <gpxtpx:TrackPointExtension></gpxtpx:TrackPointExtension>
        </extensions>
      </trkpt>
      <trkpt lat="22.749882" lon="113.936034">
        <ele>46.33</ele>
        <time>2026-08-29T09:51:32Z</time>
        <extensions>
          <gpxtpx:TrackPointExtension></gpxtpx:TrackPointExtension>
        </extensions>
      </trkpt>
      <trkpt lat="22.74982" lon="113.936163">
        <ele>46.52</ele>
        <time>2026-08-29T09:51:37Z</time>
        <extensions>
          <gpxtpx:TrackPointExtension></gpxtpx:TrackPointExtension>
        </extensions>
      </trkpt>
      <trkpt lat="22.749793" lon="113.936301">
        <ele>47.05</ele>
        <time>2026-08-29T09:51:42Z</time>
        <extensions>
          <gpxtpx:TrackPointExtension></gpxtpx:TrackPointExtension>
        </extensions>
      </trkpt>
      <trkpt lat="22.74972" lon="113.936413">
        <ele>47.74</ele>
        <time>2026-08-29T09:51:47Z</time>
        <extensions>
          <gpxtpx:TrackPointExtension></gpxtpx:TrackPointExtension>
        </extensions>
      </trkpt>
      <trkpt lat="22.749626" lon="113.936507">
        <ele>48.42</ele>
        <time>2026-08-29T09:51:52Z</time>
        <extensions>
          <gpxtpx:TrackPointExtension></gpxtpx:TrackPointExtension>
        </extensions>
      </trkpt>
      <trkpt lat="22.749539" lon="113.936608">
        <ele>49.05</ele>
        <time>2026-08-29T09:51:57Z</time>
        <extensions>
          <gpxtpx:TrackPointExtension></gpxtpx:TrackPointExtension>
        </extensions>
      </trkpt>
      <trkpt lat="22.749457" lon="113.93672">
        <ele>49.65</ele>
        <time>2026-08-29T09:52:02Z</time>
        <extensions>
          <gpxtpx:TrackPointExtension></gpxtpx:TrackPointExtension>
        </extensions>
      </trkpt>
      <trkpt lat="22.749408" lon="113.936831">
        <ele>50.16</ele>
        <time>2026-08-29T09:52:07Z</time>
        <extensions>
          <gpxtpx:TrackPointExtension></gpxtpx:TrackPointExtension>
        </extensions>
      </trkpt>
      <trkpt lat="22.749329" lon="113.936918">
        <ele>50.77</ele>
        <time>2026-08-29T09:52:12Z</time>
        <extensions>
          <gpxtpx:TrackPointExtension></gpxtpx:TrackPointExtension>
        </extensions>
      </trkpt>
      <trkpt lat="22.749227" lon="113.936995">
        <ele>50.82</ele>
        <time>2026-08-29T09:52:17Z</time>
        <extensions>
          <gpxtpx:TrackPointExtension></gpxtpx:TrackPointExtension>
        </extensions>
      </trkpt>
      <trkpt lat="22.749147" lon="113.937071">
        <ele>50.55</ele>
        <time>2026-08-29T09:52:22Z</time>
        <extensions>
          <gpxtpx:TrackPointExtension></gpxtpx:TrackPointExtension>
        </extensions>
      </trkpt>
      <trkpt lat="22.749036" lon="113.937125">
        <ele>50.38</ele>
        <time>2026-08-29T09:52:27Z</time>
        <extensions>
          <gpxtpx:TrackPointExtension></gpxtpx:TrackPointExtension>
        </extensions>
      </trkpt>
      <trkpt lat="22.748939" lon="113.937191">
        <ele>50.43</ele>
        <time>2026-08-29T09:52:32Z</time>
        <extensions>
          <gpxtpx:TrackPointExtension></gpxtpx:TrackPointExtension>
        </extensions>
      </trkpt>
      <trkpt lat="22.748858" lon="113.937279">
        <ele>50.68</ele>
        <time>2026-08-29T09:52:37Z</time>
        <extensions>
          <gpxtpx:TrackPointExtension></gpxtpx:TrackPointExtension>
        </extensions>
      </trkpt>
      <trkpt lat="22.748829" lon="113.937399">
        <ele>51.04</ele>
        <time>2026-08-29T09:52:42Z</time>
        <extensions>
          <gpxtpx:TrackPointExtension></gpxtpx:TrackPointExtension>
        </extensions>
      </trkpt>
      <trkpt lat="22.748797" lon="113.937531">
        <ele>51.51</ele>
        <time>2026-08-29T09:52:47Z</time>
        <extensions>
          <gpxtpx:TrackPointExtension></gpxtpx:TrackPointExtension>
        </extensions>
      </trkpt>
      <trkpt lat="22.748785" lon="113.937696">
        <ele>51.92</ele>
        <time>2026-08-29T09:52:52Z</time>
        <extensions>
          <gpxtpx:TrackPointExtension></gpxtpx:TrackPointExtension>
        </extensions>
      </trkpt>
      <trkpt lat="22.748812" lon="113.937893">
        <ele>52.5</ele>
        <time>2026-08-29T09:52:57Z</time>
        <extensions>
          <gpxtpx:TrackPointExtension></gpxtpx:TrackPointExtension>
        </extensions>
      </trkpt>
      <trkpt lat="22.748848" lon="113.93809">
        <ele>52.89</ele>
        <time>2026-08-29T09:53:02Z</time>
        <extensions>
          <gpxtpx:TrackPointExtension></gpxtpx:TrackPointExtension>
        </extensions>
      </trkpt>
      <trkpt lat="22.748877" lon="113.938201">
        <ele>53.26</ele>
        <time>2026-08-29T09:53:07Z</time>
        <extensions>
          <gpxtpx:TrackPointExtension></gpxtpx:TrackPointExtension>
        </extensions>
      </trkpt>
      <trkpt lat="22.748899" lon="113.938397">
        <ele>53.55</ele>
        <time>2026-08-29T09:53:12Z</time>
        <extensions>
          <gpxtpx:TrackPointExtension></gpxtpx:TrackPointExtension>
        </extensions>
      </trkpt>
      <trkpt lat="22.748885" lon="113.938475">
        <ele>53.9</ele>
        <time>2026-08-29T09:53:17Z</time>
        <extensions>
          <gpxtpx:TrackPointExtension></gpxtpx:TrackPointExtension>
        </extensions>
      </trkpt>
      <trkpt lat="22.748817" lon="113.938603">
        <ele>54.24</ele>
        <time>2026-08-29T09:53:22Z</time>
        <extensions>
          <gpxtpx:TrackPointExtension></gpxtpx:TrackPointExtension>
        </extensions>
      </trkpt>
      <trkpt lat="22.748821" lon="113.938775">
        <ele>54.41</ele>
        <time>2026-08-29T09:53:27Z</time>
        <extensions>
          <gpxtpx:TrackPointExtension></gpxtpx:TrackPointExtension>
        </extensions>
      </trkpt>
      <trkpt lat="22.748824" lon="113.938917">
        <ele>54.22</ele>
        <time>2026-08-29T09:53:32Z</time>
        <extensions>
          <gpxtpx:TrackPointExtension></gpxtpx:TrackPointExtension>
        </extensions>
      </trkpt>
      <trkpt lat="22.748868" lon="113.939062">
        <ele>53.98</ele>
        <time>2026-08-29T09:53:37Z</time>
        <extensions>
          <gpxtpx:TrackPointExtension></gpxtpx:TrackPointExtension>
        </extensions>
      </trkpt>
      <trkpt lat="22.748922" lon="113.939201">
        <ele>53.7</ele>
        <time>2026-08-29T09:53:42Z</time>
        <extensions>
          <gpxtpx:TrackPointExtension></gpxtpx:TrackPointExtension>
        </extensions>
      </trkpt>
      <trkpt lat="22.749005" lon="113.939305">
        <ele>53.52</ele>
        <time>2026-08-29T09:53:47Z</time>
        <extensions>
          <gpxtpx:TrackPointExtension></gpxtpx:TrackPointExtension>
        </extensions>
      </trkpt>
      <trkpt lat="22.749089" lon="113.939369">
        <ele>53.42</ele>
        <time>2026-08-29T09:53:52Z</time>
        <extensions>
          <gpxtpx:TrackPointExtension></gpxtpx:TrackPointExtension>
        </extensions>
      </trkpt>
      <trkpt lat="22.749202" lon="113.939384">
        <ele>53.31</ele>
        <time>2026-08-29T09:53:57Z</time>
        <extensions>
          <gpxtpx:TrackPointExtension></gpxtpx:TrackPointExtension>
        </extensions>
      </trkpt>
      <trkpt lat="22.749301" lon="113.939355">
        <ele>53.21</ele>
        <time>2026-08-29T09:54:02Z</time>
        <extensions>
          <gpxtpx:TrackPointExtension></gpxtpx:TrackPointExtension>
        </extensions>
      </trkpt>
      <trkpt lat="22.749477" lon="113.939369">
        <ele>52.93</ele>
        <time>2026-08-29T09:54:07Z</time>
        <extensions>
          <gpxtpx:TrackPointExtension></gpxtpx:TrackPointExtension>
        </extensions>
      </trkpt>
      <trkpt lat="22.749541" lon="113.939403">
        <ele>52.72</ele>
        <time>2026-08-29T09:54:12Z</time>
        <extensions>
          <gpxtpx:TrackPointExtension></gpxtpx:TrackPointExtension>
        </extensions>
      </trkpt>
      <trkpt lat="22.749663" lon="113.93948">
        <ele>52.66</ele>
        <time>2026-08-29T09:54:17Z</time>
        <extensions>
          <gpxtpx:TrackPointExtension></gpxtpx:TrackPointExtension>
        </extensions>
      </trkpt>
      <trkpt lat="22.749729" lon="113.939572">
        <ele>52.59</ele>
        <time>2026-08-29T09:54:22Z</time>
        <extensions>
          <gpxtpx:TrackPointExtension></gpxtpx:TrackPointExtension>
        </extensions>
      </trkpt>
      <trkpt lat="22.749806" lon="113.939672">
        <ele>52.65</ele>
        <time>2026-08-29T09:54:27Z</time>
        <extensions>
          <gpxtpx:TrackPointExtension></gpxtpx:TrackPointExtension>
        </extensions>
      </trkpt>
      <trkpt lat="22.749844" lon="113.93978">
        <ele>52.99</ele>
        <time>2026-08-29T09:54:32Z</time>
        <extensions>
          <gpxtpx:TrackPointExtension></gpxtpx:TrackPointExtension>
        </extensions>
      </trkpt>
      <trkpt lat="22.749865" lon="113.939889">
        <ele>53.51</ele>
        <time>2026-08-29T09:54:37Z</time>
        <extensions>
          <gpxtpx:TrackPointExtension></gpxtpx:TrackPointExtension>
        </extensions>
      </trkpt>
      <trkpt lat="22.74991" lon="113.940011">
        <ele>54.01</ele>
        <time>2026-08-29T09:54:42Z</time>
        <extensions>
          <gpxtpx:TrackPointExtension></gpxtpx:TrackPointExtension>
        </extensions>
      </trkpt>
      <trkpt lat="22.749975" lon="113.940133">
        <ele>54.19</ele>
        <time>2026-08-29T09:54:47Z</time>
        <extensions>
          <gpxtpx:TrackPointExtension></gpxtpx:TrackPointExtension>
        </extensions>
      </trkpt>
      <trkpt lat="22.74998" lon="113.940207">
        <ele>54.07</ele>
        <time>2026-08-29T09:54:52Z</time>
        <extensions>
          <gpxtpx:TrackPointExtension></gpxtpx:TrackPointExtension>
        </extensions>
      </trkpt>
      <trkpt lat="22.749973" lon="113.940344">
        <ele>53.88</ele>
        <time>2026-08-29T09:54:57Z</time>
        <extensions>
          <gpxtpx:TrackPointExtension></gpxtpx:TrackPointExtension>
        </extensions>
      </trkpt>
      <trkpt lat="22.749917" lon="113.940378">
        <ele>53.59</ele>
        <time>2026-08-29T09:55:02Z</time>
        <extensions>
          <gpxtpx:TrackPointExtension></gpxtpx:TrackPointExtension>
        </extensions>
      </trkpt>
      <trkpt lat="22.749878" lon="113.940465">
        <ele>53.24</ele>
        <time>2026-08-29T09:55:07Z</time>
        <extensions>
          <gpxtpx:TrackPointExtension></gpxtpx:TrackPointExtension>
        </extensions>
      </trkpt>
      <trkpt lat="22.749823" lon="113.940546">
        <ele>52.98</ele>
        <time>2026-08-29T09:55:12Z</time>
        <extensions>
          <gpxtpx:TrackPointExtension></gpxtpx:TrackPointExtension>
        </extensions>
      </trkpt>
      <trkpt lat="22.749761" lon="113.940672">
        <ele>52.8</ele>
        <time>2026-08-29T09:55:17Z</time>
        <extensions>
          <gpxtpx:TrackPointExtension></gpxtpx:TrackPointExtension>
        </extensions>
      </trkpt>
      <trkpt lat="22.749646" lon="113.940887">
        <ele>52.59</ele>
        <time>2026-08-29T09:55:22Z</time>
        <extensions>
          <gpxtpx:TrackPointExtension></gpxtpx:TrackPointExtension>
        </extensions>
      </trkpt>
      <trkpt lat="22.749578" lon="113.941032">
        <ele>52.69</ele>
        <time>2026-08-29T09:55:27Z</time>
        <extensions>
          <gpxtpx:TrackPointExtension></gpxtpx:TrackPointExtension>
        </extensions>
      </trkpt>
      <trkpt lat="22.749557" lon="113.94109">
        <ele>52.83</ele>
        <time>2026-08-29T09:55:32Z</time>
        <extensions>
          <gpxtpx:TrackPointExtension></gpxtpx:TrackPointExtension>
        </extensions>
      </trkpt>
      <trkpt lat="22.749498" lon="113.941205">
        <ele>53.04</ele>
        <time>2026-08-29T09:55:37Z</time>
        <extensions>
          <gpxtpx:TrackPointExtension></gpxtpx:TrackPointExtension>
        </extensions>
      </trkpt>
      <trkpt lat="22.749408" lon="113.941368">
        <ele>53.18</ele>
        <time>2026-08-29T09:55:42Z</time>
        <extensions>
          <gpxtpx:TrackPointExtension></gpxtpx:TrackPointExtension>
        </extensions>
      </trkpt>
      <trkpt lat="22.749377" lon="113.941421">
        <ele>53.26</ele>
        <time>2026-08-29T09:55:47Z</time>
        <extensions>
          <gpxtpx:TrackPointExtension></gpxtpx:TrackPointExtension>
        </extensions>
      </trkpt>
      <trkpt lat="22.749313" lon="113.941559">
        <ele>53.18</ele>
        <time>2026-08-29T09:55:52Z</time>
        <extensions>
          <gpxtpx:TrackPointExtension></gpxtpx:TrackPointExtension>
        </extensions>
      </trkpt>
      <trkpt lat="22.749281" lon="113.94174">
        <ele>52.93</ele>
        <time>2026-08-29T09:55:57Z</time>
        <extensions>
          <gpxtpx:TrackPointExtension></gpxtpx:TrackPointExtension>
        </extensions>
      </trkpt>
      <trkpt lat="22.749233" lon="113.941847">
        <ele>52.75</ele>
        <time>2026-08-29T09:56:02Z</time>
        <extensions>
          <gpxtpx:TrackPointExtension></gpxtpx:TrackPointExtension>
        </extensions>
      </trkpt>
      <trkpt lat="22.749195" lon="113.941987">
        <ele>52.57</ele>
        <time>2026-08-29T09:56:07Z</time>
        <extensions>
          <gpxtpx:TrackPointExtension></gpxtpx:TrackPointExtension>
        </extensions>
      </trkpt>
      <trkpt lat="22.749187" lon="113.942146">
        <ele>52.45</ele>
        <time>2026-08-29T09:56:12Z</time>
        <extensions>
          <gpxtpx:TrackPointExtension></gpxtpx:TrackPointExtension>
        </extensions>
      </trkpt>
      <trkpt lat="22.749126" lon="113.942305">
        <ele>52.4</ele>
        <time>2026-08-29T09:56:17Z</time>
        <extensions>
          <gpxtpx:TrackPointExtension></gpxtpx:TrackPointExtension>
        </extensions>
      </trkpt>
      <trkpt lat="22.749071" lon="113.942527">
        <ele>52.39</ele>
        <time>2026-08-29T09:56:22Z</time>
        <extensions>
          <gpxtpx:TrackPointExtension></gpxtpx:TrackPointExtension>
        </extensions>
      </trkpt>
      <trkpt lat="22.749063" lon="113.942581">
        <ele>52.38</ele>
        <time>2026-08-29T09:56:27Z</time>
        <extensions>
          <gpxtpx:TrackPointExtension></gpxtpx:TrackPointExtension>
        </extensions>
      </trkpt>
      <trkpt lat="22.749049" lon="113.942718">
        <ele>52.26</ele>
        <time>2026-08-29T09:56:32Z</time>
        <extensions>
          <gpxtpx:TrackPointExtension></gpxtpx:TrackPointExtension>
        </extensions>
      </trkpt>
      <trkpt lat="22.749083" lon="113.942863">
        <ele>52.28</ele>
        <time>2026-08-29T09:56:37Z</time>
        <extensions>
          <gpxtpx:TrackPointExtension></gpxtpx:TrackPointExtension>
        </extensions>
      </trkpt>
      <trkpt lat="22.749087" lon="113.942969">
        <ele>52.28</ele>
        <time>2026-08-29T09:56:42Z</time>
        <extensions>
          <gpxtpx:TrackPointExtension></gpxtpx:TrackPointExtension>
        </extensions>
      </trkpt>
      <trkpt lat="22.749156" lon="113.943076">
        <ele>52.27</ele>
        <time>2026-08-29T09:56:47Z</time>
        <extensions>
          <gpxtpx:TrackPointExtension></gpxtpx:TrackPointExtension>
        </extensions>
      </trkpt>
      <trkpt lat="22.749213" lon="113.943218">
        <ele>52.37</ele>
        <time>2026-08-29T09:56:52Z</time>
        <extensions>
          <gpxtpx:TrackPointExtension></gpxtpx:TrackPointExtension>
        </extensions>
      </trkpt>
      <trkpt lat="22.74929" lon="113.943361">
        <ele>52.35</ele>
        <time>2026-08-29T09:56:57Z</time>
        <extensions>
          <gpxtpx:TrackPointExtension></gpxtpx:TrackPointExtension>
        </extensions>
      </trkpt>
      <trkpt lat="22.749332" lon="113.943456">
        <ele>52.29</ele>
        <time>2026-08-29T09:57:02Z</time>
        <extensions>
          <gpxtpx:TrackPointExtension></gpxtpx:TrackPointExtension>
        </extensions>
      </trkpt>
      <trkpt lat="22.749457" lon="113.943608">
        <ele>52.26</ele>
        <time>2026-08-29T09:57:07Z</time>
        <extensions>
          <gpxtpx:TrackPointExtension></gpxtpx:TrackPointExtension>
        </extensions>
      </trkpt>
      <trkpt lat="22.749512" lon="113.943658">
        <ele>52.13</ele>
        <time>2026-08-29T09:57:12Z</time>
        <extensions>
          <gpxtpx:TrackPointExtension></gpxtpx:TrackPointExtension>
        </extensions>
      </trkpt>
      <trkpt lat="22.74959" lon="113.943737">
        <ele>51.91</ele>
        <time>2026-08-29T09:57:17Z</time>
        <extensions>
          <gpxtpx:TrackPointExtension></gpxtpx:TrackPointExtension>
        </extensions>
      </trkpt>
      <trkpt lat="22.749723" lon="113.943826">
        <ele>51.96</ele>
        <time>2026-08-29T09:57:22Z</time>
        <extensions>
          <gpxtpx:TrackPointExtension></gpxtpx:TrackPointExtension>
        </extensions>
      </trkpt>
      <trkpt lat="22.749842" lon="113.943845">
        <ele>52.12</ele>
        <time>2026-08-29T09:57:27Z</time>
        <extensions>
          <gpxtpx:TrackPointExtension></gpxtpx:TrackPointExtension>
        </extensions>
      </trkpt>
      <trkpt lat="22.749982" lon="113.943881">
        <ele>52.15</ele>
        <time>2026-08-29T09:57:32Z</time>
        <extensions>
          <gpxtpx:TrackPointExtension></gpxtpx:TrackPointExtension>
        </extensions>
      </trkpt>
      <trkpt lat="22.750123" lon="113.943886">
        <ele>52.23</ele>
        <time>2026-08-29T09:57:37Z</time>
        <extensions>
          <gpxtpx:TrackPointExtension></gpxtpx:TrackPointExtension>
        </extensions>
      </trkpt>
      <trkpt lat="22.750219" lon="113.943914">
        <ele>52.32</ele>
        <time>2026-08-29T09:57:42Z</time>
        <extensions>
          <gpxtpx:TrackPointExtension></gpxtpx:TrackPointExtension>
        </extensions>
      </trkpt>
      <trkpt lat="22.750388" lon="113.943904">
        <ele>52.2</ele>
        <time>2026-08-29T09:57:47Z</time>
        <extensions>
          <gpxtpx:TrackPointExtension></gpxtpx:TrackPointExtension>
        </extensions>
      </trkpt>
      <trkpt lat="22.750474" lon="113.943916">
        <ele>51.08</ele>
        <time>2026-08-29T09:57:52Z</time>
        <extensions>
          <gpxtpx:TrackPointExtension></gpxtpx:TrackPointExtension>
        </extensions>
      </trkpt>
      <trkpt lat="22.750666" lon="113.943864">
        <ele>49.88</ele>
        <time>2026-08-29T09:57:57Z</time>
        <extensions>
          <gpxtpx:TrackPointExtension></gpxtpx:TrackPointExtension>
        </extensions>
      </trkpt>
      <trkpt lat="22.750714" lon="113.943772">
        <ele>50.45</ele>
        <time>2026-08-29T09:58:02Z</time>
        <extensions>
          <gpxtpx:TrackPointExtension></gpxtpx:TrackPointExtension>
        </extensions>
      </trkpt>
      <trkpt lat="22.75072" lon="113.943557">
        <ele>51.23</ele>
        <time>2026-08-29T09:58:07Z</time>
        <extensions>
          <gpxtpx:TrackPointExtension></gpxtpx:TrackPointExtension>
        </extensions>
      </trkpt>
      <trkpt lat="22.750713" lon="113.943517">
        <ele>52.05</ele>
        <time>2026-08-29T09:58:12Z</time>
        <extensions>
          <gpxtpx:TrackPointExtension></gpxtpx:TrackPointExtension>
        </extensions>
      </trkpt>
      <trkpt lat="22.750694" lon="113.943388">
        <ele>52.97</ele>
        <time>2026-08-29T09:58:17Z</time>
        <extensions>
          <gpxtpx:TrackPointExtension></gpxtpx:TrackPointExtension>
        </extensions>
      </trkpt>
      <trkpt lat="22.750672" lon="113.943262">
        <ele>53.56</ele>
        <time>2026-08-29T09:58:22Z</time>
        <extensions>
          <gpxtpx:TrackPointExtension></gpxtpx:TrackPointExtension>
        </extensions>
      </trkpt>
      <trkpt lat="22.750701" lon="113.943142">
        <ele>53.77</ele>
        <time>2026-08-29T09:58:27Z</time>
        <extensions>
          <gpxtpx:TrackPointExtension></gpxtpx:TrackPointExtension>
        </extensions>
      </trkpt>
      <trkpt lat="22.750757" lon="113.943039">
        <ele>53.74</ele>
        <time>2026-08-29T09:58:32Z</time>
        <extensions>
          <gpxtpx:TrackPointExtension></gpxtpx:TrackPointExtension>
        </extensions>
      </trkpt>
      <trkpt lat="22.750836" lon="113.942946">
        <ele>53.63</ele>
        <time>2026-08-29T09:58:37Z</time>
        <extensions>
          <gpxtpx:TrackPointExtension></gpxtpx:TrackPointExtension>
        </extensions>
      </trkpt>
      <trkpt lat="22.750902" lon="113.942844">
        <ele>53.52</ele>
        <time>2026-08-29T09:58:42Z</time>
        <extensions>
          <gpxtpx:TrackPointExtension></gpxtpx:TrackPointExtension>
        </extensions>
      </trkpt>
      <trkpt lat="22.751017" lon="113.942766">
        <ele>53.41</ele>
        <time>2026-08-29T09:58:47Z</time>
        <extensions>
          <gpxtpx:TrackPointExtension></gpxtpx:TrackPointExtension>
        </extensions>
      </trkpt>
      <trkpt lat="22.751086" lon="113.942619">
        <ele>53.37</ele>
        <time>2026-08-29T09:58:52Z</time>
        <extensions>
          <gpxtpx:TrackPointExtension></gpxtpx:TrackPointExtension>
        </extensions>
      </trkpt>
      <trkpt lat="22.751191" lon="113.942536">
        <ele>53.41</ele>
        <time>2026-08-29T09:58:57Z</time>
        <extensions>
          <gpxtpx:TrackPointExtension></gpxtpx:TrackPointExtension>
        </extensions>
      </trkpt>
      <trkpt lat="22.751301" lon="113.942372">
        <ele>53.42</ele>
        <time>2026-08-29T09:59:02Z</time>
        <extensions>
          <gpxtpx:TrackPointExtension></gpxtpx:TrackPointExtension>
        </extensions>
      </trkpt>
      <trkpt lat="22.751435" lon="113.942224">
        <ele>53.32</ele>
        <time>2026-08-29T09:59:07Z</time>
        <extensions>
          <gpxtpx:TrackPointExtension></gpxtpx:TrackPointExtension>
        </extensions>
      </trkpt>
      <trkpt lat="22.751578" lon="113.942217">
        <ele>53.4</ele>
        <time>2026-08-29T09:59:12Z</time>
        <extensions>
          <gpxtpx:TrackPointExtension></gpxtpx:TrackPointExtension>
        </extensions>
      </trkpt>
      <trkpt lat="22.751691" lon="113.942254">
        <ele>53.56</ele>
        <time>2026-08-29T09:59:17Z</time>
        <extensions>
          <gpxtpx:TrackPointExtension></gpxtpx:TrackPointExtension>
        </extensions>
      </trkpt>
      <trkpt lat="22.751844" lon="113.942303">
        <ele>53.64</ele>
        <time>2026-08-29T09:59:22Z</time>
        <extensions>
          <gpxtpx:TrackPointExtension></gpxtpx:TrackPointExtension>
        </extensions>
      </trkpt>
      <trkpt lat="22.751971" lon="113.94231">
        <ele>53.71</ele>
        <time>2026-08-29T09:59:27Z</time>
        <extensions>
          <gpxtpx:TrackPointExtension></gpxtpx:TrackPointExtension>
        </extensions>
      </trkpt>
      <trkpt lat="22.752116" lon="113.94232">
        <ele>53.75</ele>
        <time>2026-08-29T09:59:32Z</time>
        <extensions>
          <gpxtpx:TrackPointExtension></gpxtpx:TrackPointExtension>
        </extensions>
      </trkpt>
      <trkpt lat="22.752224" lon="113.942325">
        <ele>53.78</ele>
        <time>2026-08-29T09:59:37Z</time>
        <extensions>
          <gpxtpx:TrackPointExtension></gpxtpx:TrackPointExtension>
        </extensions>
      </trkpt>
      <trkpt lat="22.752438" lon="113.942297">
        <ele>53.8</ele>
        <time>2026-08-29T09:59:42Z</time>
        <extensions>
          <gpxtpx:TrackPointExtension></gpxtpx:TrackPointExtension>
        </extensions>
      </trkpt>
      <trkpt lat="22.752547" lon="113.942285">
        <ele>53.81</ele>
        <time>2026-08-29T09:59:47Z</time>
        <extensions>
          <gpxtpx:TrackPointExtension></gpxtpx:TrackPointExtension>
        </extensions>
      </trkpt>
      <trkpt lat="22.752674" lon="113.94229">
        <ele>53.82</ele>
        <time>2026-08-29T09:59:52Z</time>
        <extensions>
          <gpxtpx:TrackPointExtension></gpxtpx:TrackPointExtension>
        </extensions>
      </trkpt>
      <trkpt lat="22.75277" lon="113.942291">
        <ele>53.83</ele>
        <time>2026-08-29T09:59:57Z</time>
        <extensions>
          <gpxtpx:TrackPointExtension></gpxtpx:TrackPointExtension>
        </extensions>
      </trkpt>
      <trkpt lat="22.752888" lon="113.942147">
        <ele>53.92</ele>
        <time>2026-08-29T10:00:02Z</time>
        <extensions>
          <gpxtpx:TrackPointExtension></gpxtpx:TrackPointExtension>
        </extensions>
      </trkpt>
      <trkpt lat="22.752937" lon="113.941972">
        <ele>53.22</ele>
        <time>2026-08-29T10:00:07Z</time>
        <extensions>
          <gpxtpx:TrackPointExtension></gpxtpx:TrackPointExtension>
        </extensions>
      </trkpt>
      <trkpt lat="22.753051" lon="113.941875">
        <ele>52.05</ele>
        <time>2026-08-29T10:00:12Z</time>
        <extensions>
          <gpxtpx:TrackPointExtension></gpxtpx:TrackPointExtension>
        </extensions>
      </trkpt>
      <trkpt lat="22.753145" lon="113.941791">
        <ele>50.72</ele>
        <time>2026-08-29T10:00:17Z</time>
        <extensions>
          <gpxtpx:TrackPointExtension></gpxtpx:TrackPointExtension>
        </extensions>
      </trkpt>
      <trkpt lat="22.75323" lon="113.941754">
        <ele>49.56</ele>
        <time>2026-08-29T10:00:22Z</time>
        <extensions>
          <gpxtpx:TrackPointExtension></gpxtpx:TrackPointExtension>
        </extensions>
      </trkpt>
      <trkpt lat="22.753293" lon="113.941676">
        <ele>48.4</ele>
        <time>2026-08-29T10:00:27Z</time>
        <extensions>
          <gpxtpx:TrackPointExtension></gpxtpx:TrackPointExtension>
        </extensions>
      </trkpt>
      <trkpt lat="22.753321" lon="113.941577">
        <ele>47.76</ele>
        <time>2026-08-29T10:00:32Z</time>
        <extensions>
          <gpxtpx:TrackPointExtension></gpxtpx:TrackPointExtension>
        </extensions>
      </trkpt>
      <trkpt lat="22.753426" lon="113.94146">
        <ele>47.66</ele>
        <time>2026-08-29T10:00:37Z</time>
        <extensions>
          <gpxtpx:TrackPointExtension></gpxtpx:TrackPointExtension>
        </extensions>
      </trkpt>
      <trkpt lat="22.753447" lon="113.941419">
        <ele>47.64</ele>
        <time>2026-08-29T10:00:42Z</time>
        <extensions>
          <gpxtpx:TrackPointExtension></gpxtpx:TrackPointExtension>
        </extensions>
      </trkpt>
      <trkpt lat="22.753606" lon="113.9413">
        <ele>47.72</ele>
        <time>2026-08-29T10:00:47Z</time>
        <extensions>
          <gpxtpx:TrackPointExtension></gpxtpx:TrackPointExtension>
        </extensions>
      </trkpt>
      <trkpt lat="22.753642" lon="113.941288">
        <ele>47.8</ele>
        <time>2026-08-29T10:00:52Z</time>
        <extensions>
          <gpxtpx:TrackPointExtension></gpxtpx:TrackPointExtension>
        </extensions>
      </trkpt>
      <trkpt lat="22.753714" lon="113.941205">
        <ele>48.02</ele>
        <time>2026-08-29T10:00:57Z</time>
        <extensions>
          <gpxtpx:TrackPointExtension></gpxtpx:TrackPointExtension>
        </extensions>
      </trkpt>
      <trkpt lat="22.753788" lon="113.941171">
        <ele>48.36</ele>
        <time>2026-08-29T10:01:02Z</time>
        <extensions>
          <gpxtpx:TrackPointExtension></gpxtpx:TrackPointExtension>
        </extensions>
      </trkpt>
      <trkpt lat="22.753862" lon="113.941118">
        <ele>48.68</ele>
        <time>2026-08-29T10:01:07Z</time>
        <extensions>
          <gpxtpx:TrackPointExtension></gpxtpx:TrackPointExtension>
        </extensions>
      </trkpt>
      <trkpt lat="22.753947" lon="113.941084">
        <ele>48.99</ele>
        <time>2026-08-29T10:01:12Z</time>
        <extensions>
          <gpxtpx:TrackPointExtension></gpxtpx:TrackPointExtension>
        </extensions>
      </trkpt>
      <trkpt lat="22.75399" lon="113.94095">
        <ele>49.4</ele>
        <time>2026-08-29T10:01:17Z</time>
        <extensions>
          <gpxtpx:TrackPointExtension></gpxtpx:TrackPointExtension>
        </extensions>
      </trkpt>
      <trkpt lat="22.754011" lon="113.940804">
        <ele>49.71</ele>
        <time>2026-08-29T10:01:22Z</time>
        <extensions>
          <gpxtpx:TrackPointExtension></gpxtpx:TrackPointExtension>
        </extensions>
      </trkpt>
      <trkpt lat="22.75404" lon="113.940674">
        <ele>50.1</ele>
        <time>2026-08-29T10:01:27Z</time>
        <extensions>
          <gpxtpx:TrackPointExtension></gpxtpx:TrackPointExtension>
        </extensions>
      </trkpt>
      <trkpt lat="22.754036" lon="113.94038">
        <ele>50.14</ele>
        <time>2026-08-29T10:01:32Z</time>
        <extensions>
          <gpxtpx:TrackPointExtension></gpxtpx:TrackPointExtension>
        </extensions>
      </trkpt>
      <trkpt lat="22.754027" lon="113.940358">
        <ele>49.68</ele>
        <time>2026-08-29T10:01:37Z</time>
        <extensions>
          <gpxtpx:TrackPointExtension></gpxtpx:TrackPointExtension>
        </extensions>
      </trkpt>
      <trkpt lat="22.753899" lon="113.940169">
        <ele>48.98</ele>
        <time>2026-08-29T10:01:42Z</time>
        <extensions>
          <gpxtpx:TrackPointExtension></gpxtpx:TrackPointExtension>
        </extensions>
      </trkpt>
      <trkpt lat="22.753797" lon="113.940096">
        <ele>48.04</ele>
        <time>2026-08-29T10:01:47Z</time>
        <extensions>
          <gpxtpx:TrackPointExtension></gpxtpx:TrackPointExtension>
        </extensions>
      </trkpt>
      <trkpt lat="22.753782" lon="113.94008">
        <ele>47.32</ele>
        <time>2026-08-29T10:01:52Z</time>
        <extensions>
          <gpxtpx:TrackPointExtension></gpxtpx:TrackPointExtension>
        </extensions>
      </trkpt>
      <trkpt lat="22.753565" lon="113.940075">
        <ele>47.19</ele>
        <time>2026-08-29T10:01:57Z</time>
        <extensions>
          <gpxtpx:TrackPointExtension></gpxtpx:TrackPointExtension>
        </extensions>
      </trkpt>
      <trkpt lat="22.75348" lon="113.940095">
        <ele>47.13</ele>
        <time>2026-08-29T10:02:02Z</time>
        <extensions>
          <gpxtpx:TrackPointExtension></gpxtpx:TrackPointExtension>
        </extensions>
      </trkpt>
      <trkpt lat="22.753234" lon="113.940161">
        <ele>46.91</ele>
        <time>2026-08-29T10:02:07Z</time>
        <extensions>
          <gpxtpx:TrackPointExtension></gpxtpx:TrackPointExtension>
        </extensions>
      </trkpt>
      <trkpt lat="22.75318" lon="113.940171">
        <ele>46.83</ele>
        <time>2026-08-29T10:02:12Z</time>
        <extensions>
          <gpxtpx:TrackPointExtension></gpxtpx:TrackPointExtension>
        </extensions>
      </trkpt>
      <trkpt lat="22.753016" lon="113.940192">
        <ele>46.78</ele>
        <time>2026-08-29T10:02:17Z</time>
        <extensions>
          <gpxtpx:TrackPointExtension></gpxtpx:TrackPointExtension>
        </extensions>
      </trkpt>
      <trkpt lat="22.752744" lon="113.940187">
        <ele>46.74</ele>
        <time>2026-08-29T10:02:22Z</time>
        <extensions>
          <gpxtpx:TrackPointExtension></gpxtpx:TrackPointExtension>
        </extensions>
      </trkpt>
      <trkpt lat="22.75268" lon="113.940189">
        <ele>46.53</ele>
        <time>2026-08-29T10:02:27Z</time>
        <extensions>
          <gpxtpx:TrackPointExtension></gpxtpx:TrackPointExtension>
        </extensions>
      </trkpt>
      <trkpt lat="22.752539" lon="113.940202">
        <ele>46.45</ele>
        <time>2026-08-29T10:02:32Z</time>
        <extensions>
          <gpxtpx:TrackPointExtension></gpxtpx:TrackPointExtension>
        </extensions>
      </trkpt>
      <trkpt lat="22.752443" lon="113.940204">
        <ele>46.44</ele>
        <time>2026-08-29T10:02:37Z</time>
        <extensions>
          <gpxtpx:TrackPointExtension></gpxtpx:TrackPointExtension>
        </extensions>
      </trkpt>
      <trkpt lat="22.752329" lon="113.940247">
        <ele>46.25</ele>
        <time>2026-08-29T10:02:42Z</time>
        <extensions>
          <gpxtpx:TrackPointExtension></gpxtpx:TrackPointExtension>
        </extensions>
      </trkpt>
      <trkpt lat="22.752206" lon="113.940275">
        <ele>46.12</ele>
        <time>2026-08-29T10:02:47Z</time>
        <extensions>
          <gpxtpx:TrackPointExtension></gpxtpx:TrackPointExtension>
        </extensions>
      </trkpt>
      <trkpt lat="22.75208" lon="113.940265">
        <ele>46.04</ele>
        <time>2026-08-29T10:02:52Z</time>
        <extensions>
          <gpxtpx:TrackPointExtension></gpxtpx:TrackPointExtension>
        </extensions>
      </trkpt>
      <trkpt lat="22.751961" lon="113.94026">
        <ele>45.87</ele>
        <time>2026-08-29T10:02:57Z</time>
        <extensions>
          <gpxtpx:TrackPointExtension></gpxtpx:TrackPointExtension>
        </extensions>
      </trkpt>
      <trkpt lat="22.751854" lon="113.940198">
        <ele>45.92</ele>
        <time>2026-08-29T10:03:02Z</time>
        <extensions>
          <gpxtpx:TrackPointExtension></gpxtpx:TrackPointExtension>
        </extensions>
      </trkpt>
      <trkpt lat="22.751788" lon="113.940108">
        <ele>45.9</ele>
        <time>2026-08-29T10:03:07Z</time>
        <extensions>
          <gpxtpx:TrackPointExtension></gpxtpx:TrackPointExtension>
        </extensions>
      </trkpt>
      <trkpt lat="22.7517" lon="113.939886">
        <ele>45.91</ele>
        <time>2026-08-29T10:03:12Z</time>
        <extensions>
          <gpxtpx:TrackPointExtension></gpxtpx:TrackPointExtension>
        </extensions>
      </trkpt>
      <trkpt lat="22.751703" lon="113.939823">
        <ele>45.94</ele>
        <time>2026-08-29T10:03:17Z</time>
        <extensions>
          <gpxtpx:TrackPointExtension></gpxtpx:TrackPointExtension>
        </extensions>
      </trkpt>
      <trkpt lat="22.751731" lon="113.939666">
        <ele>45.99</ele>
        <time>2026-08-29T10:03:22Z</time>
        <extensions>
          <gpxtpx:TrackPointExtension></gpxtpx:TrackPointExtension>
        </extensions>
      </trkpt>
      <trkpt lat="22.751721" lon="113.939452">
        <ele>46.09</ele>
        <time>2026-08-29T10:03:27Z</time>
        <extensions>
          <gpxtpx:TrackPointExtension></gpxtpx:TrackPointExtension>
        </extensions>
      </trkpt>
      <trkpt lat="22.751702" lon="113.939386">
        <ele>45.97</ele>
        <time>2026-08-29T10:03:32Z</time>
        <extensions>
          <gpxtpx:TrackPointExtension></gpxtpx:TrackPointExtension>
        </extensions>
      </trkpt>
      <trkpt lat="22.751656" lon="113.939264">
        <ele>45.68</ele>
        <time>2026-08-29T10:03:37Z</time>
        <extensions>
          <gpxtpx:TrackPointExtension></gpxtpx:TrackPointExtension>
        </extensions>
      </trkpt>
      <trkpt lat="22.751601" lon="113.939141">
        <ele>45.45</ele>
        <time>2026-08-29T10:03:42Z</time>
        <extensions>
          <gpxtpx:TrackPointExtension></gpxtpx:TrackPointExtension>
        </extensions>
      </trkpt>
      <trkpt lat="22.751542" lon="113.939019">
        <ele>45.25</ele>
        <time>2026-08-29T10:03:47Z</time>
        <extensions>
          <gpxtpx:TrackPointExtension></gpxtpx:TrackPointExtension>
        </extensions>
      </trkpt>
      <trkpt lat="22.75151" lon="113.93892">
        <ele>45.02</ele>
        <time>2026-08-29T10:03:52Z</time>
        <extensions>
          <gpxtpx:TrackPointExtension></gpxtpx:TrackPointExtension>
        </extensions>
      </trkpt>
      <trkpt lat="22.751519" lon="113.938783">
        <ele>44.82</ele>
        <time>2026-08-29T10:03:57Z</time>
        <extensions>
          <gpxtpx:TrackPointExtension></gpxtpx:TrackPointExtension>
        </extensions>
      </trkpt>
      <trkpt lat="22.75162" lon="113.938567">
        <ele>44.57</ele>
        <time>2026-08-29T10:04:02Z</time>
        <extensions>
          <gpxtpx:TrackPointExtension></gpxtpx:TrackPointExtension>
        </extensions>
      </trkpt>
      <trkpt lat="22.751668" lon="113.938531">
        <ele>44.44</ele>
        <time>2026-08-29T10:04:07Z</time>
        <extensions>
          <gpxtpx:TrackPointExtension></gpxtpx:TrackPointExtension>
        </extensions>
      </trkpt>
      <trkpt lat="22.751732" lon="113.938444">
        <ele>44.32</ele>
        <time>2026-08-29T10:04:12Z</time>
        <extensions>
          <gpxtpx:TrackPointExtension></gpxtpx:TrackPointExtension>
        </extensions>
      </trkpt>
      <trkpt lat="22.751814" lon="113.938369">
        <ele>44.27</ele>
        <time>2026-08-29T10:04:17Z</time>
        <extensions>
          <gpxtpx:TrackPointExtension></gpxtpx:TrackPointExtension>
        </extensions>
      </trkpt>
      <trkpt lat="22.751901" lon="113.938285">
        <ele>44.17</ele>
        <time>2026-08-29T10:04:22Z</time>
        <extensions>
          <gpxtpx:TrackPointExtension></gpxtpx:TrackPointExtension>
        </extensions>
      </trkpt>
      <trkpt lat="22.751964" lon="113.938189">
        <ele>44.02</ele>
        <time>2026-08-29T10:04:27Z</time>
        <extensions>
          <gpxtpx:TrackPointExtension></gpxtpx:TrackPointExtension>
        </extensions>
      </trkpt>
      <trkpt lat="22.752068" lon="113.938129">
        <ele>43.91</ele>
        <time>2026-08-29T10:04:32Z</time>
        <extensions>
          <gpxtpx:TrackPointExtension></gpxtpx:TrackPointExtension>
        </extensions>
      </trkpt>
      <trkpt lat="22.752178" lon="113.93804">
        <ele>43.95</ele>
        <time>2026-08-29T10:04:37Z</time>
        <extensions>
          <gpxtpx:TrackPointExtension></gpxtpx:TrackPointExtension>
        </extensions>
      </trkpt>
      <trkpt lat="22.752364" lon="113.937925">
        <ele>43.91</ele>
        <time>2026-08-29T10:04:42Z</time>
        <extensions>
          <gpxtpx:TrackPointExtension></gpxtpx:TrackPointExtension>
        </extensions>
      </trkpt>
      <trkpt lat="22.752438" lon="113.937833">
        <ele>43.94</ele>
        <time>2026-08-29T10:04:47Z</time>
        <extensions>
          <gpxtpx:TrackPointExtension></gpxtpx:TrackPointExtension>
        </extensions>
      </trkpt>
      <trkpt lat="22.752529" lon="113.937712">
        <ele>43.95</ele>
        <time>2026-08-29T10:04:52Z</time>
        <extensions>
          <gpxtpx:TrackPointExtension></gpxtpx:TrackPointExtension>
        </extensions>
      </trkpt>
      <trkpt lat="22.752554" lon="113.937606">
        <ele>44.08</ele>
        <time>2026-08-29T10:04:57Z</time>
        <extensions>
          <gpxtpx:TrackPointExtension></gpxtpx:TrackPointExtension>
        </extensions>
      </trkpt>
      <trkpt lat="22.75256" lon="113.937468">
        <ele>44.21</ele>
        <time>2026-08-29T10:05:02Z</time>
        <extensions>
          <gpxtpx:TrackPointExtension></gpxtpx:TrackPointExtension>
        </extensions>
      </trkpt>
      <trkpt lat="22.752524" lon="113.93733">
        <ele>44.2</ele>
        <time>2026-08-29T10:05:07Z</time>
        <extensions>
          <gpxtpx:TrackPointExtension></gpxtpx:TrackPointExtension>
        </extensions>
      </trkpt>
      <trkpt lat="22.752483" lon="113.937182">
        <ele>44.2</ele>
        <time>2026-08-29T10:05:12Z</time>
        <extensions>
          <gpxtpx:TrackPointExtension></gpxtpx:TrackPointExtension>
        </extensions>
      </trkpt>
      <trkpt lat="22.752426" lon="113.937028">
        <ele>44.25</ele>
        <time>2026-08-29T10:05:17Z</time>
        <extensions>
          <gpxtpx:TrackPointExtension></gpxtpx:TrackPointExtension>
        </extensions>
      </trkpt>
      <trkpt lat="22.752274" lon="113.936804">
        <ele>44.28</ele>
        <time>2026-08-29T10:05:22Z</time>
        <extensions>
          <gpxtpx:TrackPointExtension></gpxtpx:TrackPointExtension>
        </extensions>
      </trkpt>
      <trkpt lat="22.75224" lon="113.936778">
        <ele>44.3</ele>
        <time>2026-08-29T10:05:27Z</time>
        <extensions>
          <gpxtpx:TrackPointExtension></gpxtpx:TrackPointExtension>
        </extensions>
      </trkpt>
      <trkpt lat="22.752142" lon="113.936708">
        <ele>44.3</ele>
        <time>2026-08-29T10:05:32Z</time>
        <extensions>
          <gpxtpx:TrackPointExtension></gpxtpx:TrackPointExtension>
        </extensions>
      </trkpt>
      <trkpt lat="22.751947" lon="113.936638">
        <ele>44.22</ele>
        <time>2026-08-29T10:05:37Z</time>
        <extensions>
          <gpxtpx:TrackPointExtension></gpxtpx:TrackPointExtension>
        </extensions>
      </trkpt>
      <trkpt lat="22.75193" lon="113.93663">
        <ele>44.2</ele>
        <time>2026-08-29T10:05:42Z</time>
        <extensions>
          <gpxtpx:TrackPointExtension></gpxtpx:TrackPointExtension>
        </extensions>
      </trkpt>
      <trkpt lat="22.75182" lon="113.93665">
        <ele>44.13</ele>
        <time>2026-08-29T10:05:47Z</time>
        <extensions>
          <gpxtpx:TrackPointExtension></gpxtpx:TrackPointExtension>
        </extensions>
      </trkpt>
      <trkpt lat="22.751623" lon="113.936654">
        <ele>44.05</ele>
        <time>2026-08-29T10:05:52Z</time>
        <extensions>
          <gpxtpx:TrackPointExtension></gpxtpx:TrackPointExtension>
        </extensions>
      </trkpt>
      <trkpt lat="22.751571" lon="113.936673">
        <ele>44.05</ele>
        <time>2026-08-29T10:05:57Z</time>
        <extensions>
          <gpxtpx:TrackPointExtension></gpxtpx:TrackPointExtension>
        </extensions>
      </trkpt>
      <trkpt lat="22.751476" lon="113.93674">
        <ele>43.88</ele>
        <time>2026-08-29T10:06:02Z</time>
        <extensions>
          <gpxtpx:TrackPointExtension></gpxtpx:TrackPointExtension>
        </extensions>
      </trkpt>
      <trkpt lat="22.75134" lon="113.936808">
        <ele>43.64</ele>
        <time>2026-08-29T10:06:07Z</time>
        <extensions>
          <gpxtpx:TrackPointExtension></gpxtpx:TrackPointExtension>
        </extensions>
      </trkpt>
      <trkpt lat="22.751207" lon="113.936841">
        <ele>43.52</ele>
        <time>2026-08-29T10:06:12Z</time>
        <extensions>
          <gpxtpx:TrackPointExtension></gpxtpx:TrackPointExtension>
        </extensions>
      </trkpt>
      <trkpt lat="22.75103" lon="113.936826">
        <ele>43.44</ele>
        <time>2026-08-29T10:06:17Z</time>
        <extensions>
          <gpxtpx:TrackPointExtension></gpxtpx:TrackPointExtension>
        </extensions>
      </trkpt>
      <trkpt lat="22.750968" lon="113.936818">
        <ele>43.32</ele>
        <time>2026-08-29T10:06:22Z</time>
        <extensions>
          <gpxtpx:TrackPointExtension></gpxtpx:TrackPointExtension>
        </extensions>
      </trkpt>
      <trkpt lat="22.750842" lon="113.936737">
        <ele>43.25</ele>
        <time>2026-08-29T10:06:27Z</time>
        <extensions>
          <gpxtpx:TrackPointExtension></gpxtpx:TrackPointExtension>
        </extensions>
      </trkpt>
      <trkpt lat="22.750752" lon="113.936677">
        <ele>43.16</ele>
        <time>2026-08-29T10:06:32Z</time>
        <extensions>
          <gpxtpx:TrackPointExtension></gpxtpx:TrackPointExtension>
        </extensions>
      </trkpt>
      <trkpt lat="22.750613" lon="113.93661">
        <ele>43.23</ele>
        <time>2026-08-29T10:06:37Z</time>
        <extensions>
          <gpxtpx:TrackPointExtension></gpxtpx:TrackPointExtension>
        </extensions>
      </trkpt>
      <trkpt lat="22.750488" lon="113.936561">
        <ele>43.31</ele>
        <time>2026-08-29T10:06:42Z</time>
        <extensions>
          <gpxtpx:TrackPointExtension></gpxtpx:TrackPointExtension>
        </extensions>
      </trkpt>
      <trkpt lat="22.75035" lon="113.936528">
        <ele>43.35</ele>
        <time>2026-08-29T10:06:47Z</time>
        <extensions>
          <gpxtpx:TrackPointExtension></gpxtpx:TrackPointExtension>
        </extensions>
      </trkpt>
      <trkpt lat="22.750273" lon="113.936522">
        <ele>43.47</ele>
        <time>2026-08-29T10:06:52Z</time>
        <extensions>
          <gpxtpx:TrackPointExtension></gpxtpx:TrackPointExtension>
        </extensions>
      </trkpt>
      <trkpt lat="22.750139" lon="113.936488">
        <ele>43.57</ele>
        <time>2026-08-29T10:06:57Z</time>
        <extensions>
          <gpxtpx:TrackPointExtension></gpxtpx:TrackPointExtension>
        </extensions>
      </trkpt>
      <trkpt lat="22.750037" lon="113.936476">
        <ele>43.67</ele>
        <time>2026-08-29T10:07:02Z</time>
        <extensions>
          <gpxtpx:TrackPointExtension></gpxtpx:TrackPointExtension>
        </extensions>
      </trkpt>
      <trkpt lat="22.749892" lon="113.936426">
        <ele>44.11</ele>
        <time>2026-08-29T10:07:07Z</time>
        <extensions>
          <gpxtpx:TrackPointExtension></gpxtpx:TrackPointExtension>
        </extensions>
      </trkpt>
      <trkpt lat="22.749786" lon="113.936401">
        <ele>44.85</ele>
        <time>2026-08-29T10:07:12Z</time>
        <extensions>
          <gpxtpx:TrackPointExtension></gpxtpx:TrackPointExtension>
        </extensions>
      </trkpt>
      <trkpt lat="22.749694" lon="113.936451">
        <ele>45.61</ele>
        <time>2026-08-29T10:07:17Z</time>
        <extensions>
          <gpxtpx:TrackPointExtension></gpxtpx:TrackPointExtension>
        </extensions>
      </trkpt>
      <trkpt lat="22.749613" lon="113.936548">
        <ele>46.34</ele>
        <time>2026-08-29T10:07:22Z</time>
        <extensions>
          <gpxtpx:TrackPointExtension></gpxtpx:TrackPointExtension>
        </extensions>
      </trkpt>
      <trkpt lat="22.749515" lon="113.936655">
        <ele>46.81</ele>
        <time>2026-08-29T10:07:27Z</time>
        <extensions>
          <gpxtpx:TrackPointExtension></gpxtpx:TrackPointExtension>
        </extensions>
      </trkpt>
      <trkpt lat="22.749461" lon="113.936752">
        <ele>47.35</ele>
        <time>2026-08-29T10:07:32Z</time>
        <extensions>
          <gpxtpx:TrackPointExtension></gpxtpx:TrackPointExtension>
        </extensions>
      </trkpt>
      <trkpt lat="22.749401" lon="113.936835">
        <ele>47.92</ele>
        <time>2026-08-29T10:07:37Z</time>
        <extensions>
          <gpxtpx:TrackPointExtension></gpxtpx:TrackPointExtension>
        </extensions>
      </trkpt>
      <trkpt lat="22.749349" lon="113.936899">
        <ele>48.16</ele>
        <time>2026-08-29T10:07:42Z</time>
        <extensions>
          <gpxtpx:TrackPointExtension></gpxtpx:TrackPointExtension>
        </extensions>
      </trkpt>
      <trkpt lat="22.749261" lon="113.93697">
        <ele>48.08</ele>
        <time>2026-08-29T10:07:47Z</time>
        <extensions>
          <gpxtpx:TrackPointExtension></gpxtpx:TrackPointExtension>
        </extensions>
      </trkpt>
      <trkpt lat="22.749158" lon="113.93704">
        <ele>47.83</ele>
        <time>2026-08-29T10:07:52Z</time>
        <extensions>
          <gpxtpx:TrackPointExtension></gpxtpx:TrackPointExtension>
        </extensions>
      </trkpt>
      <trkpt lat="22.749057" lon="113.937089">
        <ele>47.71</ele>
        <time>2026-08-29T10:07:57Z</time>
        <extensions>
          <gpxtpx:TrackPointExtension></gpxtpx:TrackPointExtension>
        </extensions>
      </trkpt>
      <trkpt lat="22.748974" lon="113.937166">
        <ele>47.74</ele>
        <time>2026-08-29T10:08:02Z</time>
        <extensions>
          <gpxtpx:TrackPointExtension></gpxtpx:TrackPointExtension>
        </extensions>
      </trkpt>
      <trkpt lat="22.748941" lon="113.937301">
        <ele>47.97</ele>
        <time>2026-08-29T10:08:07Z</time>
        <extensions>
          <gpxtpx:TrackPointExtension></gpxtpx:TrackPointExtension>
        </extensions>
      </trkpt>
      <trkpt lat="22.74889" lon="113.937423">
        <ele>48.46</ele>
        <time>2026-08-29T10:08:12Z</time>
        <extensions>
          <gpxtpx:TrackPointExtension></gpxtpx:TrackPointExtension>
        </extensions>
      </trkpt>
      <trkpt lat="22.748842" lon="113.937574">
        <ele>48.78</ele>
        <time>2026-08-29T10:08:17Z</time>
        <extensions>
          <gpxtpx:TrackPointExtension></gpxtpx:TrackPointExtension>
        </extensions>
      </trkpt>
      <trkpt lat="22.748814" lon="113.937686">
        <ele>49.13</ele>
        <time>2026-08-29T10:08:22Z</time>
        <extensions>
          <gpxtpx:TrackPointExtension></gpxtpx:TrackPointExtension>
        </extensions>
      </trkpt>
      <trkpt lat="22.748812" lon="113.93784">
        <ele>49.57</ele>
        <time>2026-08-29T10:08:27Z</time>
        <extensions>
          <gpxtpx:TrackPointExtension></gpxtpx:TrackPointExtension>
        </extensions>
      </trkpt>
      <trkpt lat="22.748855" lon="113.937932">
        <ele>50.03</ele>
        <time>2026-08-29T10:08:32Z</time>
        <extensions>
          <gpxtpx:TrackPointExtension></gpxtpx:TrackPointExtension>
        </extensions>
      </trkpt>
      <trkpt lat="22.74889" lon="113.93806">
        <ele>50.29</ele>
        <time>2026-08-29T10:08:37Z</time>
        <extensions>
          <gpxtpx:TrackPointExtension></gpxtpx:TrackPointExtension>
        </extensions>
      </trkpt>
      <trkpt lat="22.748918" lon="113.938279">
        <ele>50.64</ele>
        <time>2026-08-29T10:08:42Z</time>
        <extensions>
          <gpxtpx:TrackPointExtension></gpxtpx:TrackPointExtension>
        </extensions>
      </trkpt>
      <trkpt lat="22.748903" lon="113.938399">
        <ele>50.98</ele>
        <time>2026-08-29T10:08:47Z</time>
        <extensions>
          <gpxtpx:TrackPointExtension></gpxtpx:TrackPointExtension>
        </extensions>
      </trkpt>
      <trkpt lat="22.748881" lon="113.938472">
        <ele>51.18</ele>
        <time>2026-08-29T10:08:52Z</time>
        <extensions>
          <gpxtpx:TrackPointExtension></gpxtpx:TrackPointExtension>
        </extensions>
      </trkpt>
      <trkpt lat="22.748871" lon="113.938585">
        <ele>51.45</ele>
        <time>2026-08-29T10:08:57Z</time>
        <extensions>
          <gpxtpx:TrackPointExtension></gpxtpx:TrackPointExtension>
        </extensions>
      </trkpt>
      <trkpt lat="22.748835" lon="113.938708">
        <ele>51.64</ele>
        <time>2026-08-29T10:09:02Z</time>
        <extensions>
          <gpxtpx:TrackPointExtension></gpxtpx:TrackPointExtension>
        </extensions>
      </trkpt>
      <trkpt lat="22.74883" lon="113.938847">
        <ele>51.55</ele>
        <time>2026-08-29T10:09:07Z</time>
        <extensions>
          <gpxtpx:TrackPointExtension></gpxtpx:TrackPointExtension>
        </extensions>
      </trkpt>
      <trkpt lat="22.748875" lon="113.939066">
        <ele>51.36</ele>
        <time>2026-08-29T10:09:12Z</time>
        <extensions>
          <gpxtpx:TrackPointExtension></gpxtpx:TrackPointExtension>
        </extensions>
      </trkpt>
      <trkpt lat="22.748887" lon="113.939082">
        <ele>51.13</ele>
        <time>2026-08-29T10:09:17Z</time>
        <extensions>
          <gpxtpx:TrackPointExtension></gpxtpx:TrackPointExtension>
        </extensions>
      </trkpt>
      <trkpt lat="22.748953" lon="113.939172">
        <ele>50.79</ele>
        <time>2026-08-29T10:09:22Z</time>
        <extensions>
          <gpxtpx:TrackPointExtension></gpxtpx:TrackPointExtension>
        </extensions>
      </trkpt>
      <trkpt lat="22.749041" lon="113.939257">
        <ele>50.63</ele>
        <time>2026-08-29T10:09:27Z</time>
        <extensions>
          <gpxtpx:TrackPointExtension></gpxtpx:TrackPointExtension>
        </extensions>
      </trkpt>
      <trkpt lat="22.749241" lon="113.939292">
        <ele>50.52</ele>
        <time>2026-08-29T10:09:32Z</time>
        <extensions>
          <gpxtpx:TrackPointExtension></gpxtpx:TrackPointExtension>
        </extensions>
      </trkpt>
      <trkpt lat="22.749284" lon="113.939283">
        <ele>50.38</ele>
        <time>2026-08-29T10:09:37Z</time>
        <extensions>
          <gpxtpx:TrackPointExtension></gpxtpx:TrackPointExtension>
        </extensions>
      </trkpt>
      <trkpt lat="22.749454" lon="113.939325">
        <ele>50.17</ele>
        <time>2026-08-29T10:09:42Z</time>
        <extensions>
          <gpxtpx:TrackPointExtension></gpxtpx:TrackPointExtension>
        </extensions>
      </trkpt>
      <trkpt lat="22.749508" lon="113.939355">
        <ele>49.84</ele>
        <time>2026-08-29T10:09:47Z</time>
        <extensions>
          <gpxtpx:TrackPointExtension></gpxtpx:TrackPointExtension>
        </extensions>
      </trkpt>
      <trkpt lat="22.749648" lon="113.939404">
        <ele>49.62</ele>
        <time>2026-08-29T10:09:52Z</time>
        <extensions>
          <gpxtpx:TrackPointExtension></gpxtpx:TrackPointExtension>
        </extensions>
      </trkpt>
      <trkpt lat="22.74977" lon="113.939503">
        <ele>49.64</ele>
        <time>2026-08-29T10:09:57Z</time>
        <extensions>
          <gpxtpx:TrackPointExtension></gpxtpx:TrackPointExtension>
        </extensions>
      </trkpt>
      <trkpt lat="22.749867" lon="113.939609">
        <ele>49.67</ele>
        <time>2026-08-29T10:10:02Z</time>
        <extensions>
          <gpxtpx:TrackPointExtension></gpxtpx:TrackPointExtension>
        </extensions>
      </trkpt>
      <trkpt lat="22.749952" lon="113.939745">
        <ele>50.05</ele>
        <time>2026-08-29T10:10:07Z</time>
        <extensions>
          <gpxtpx:TrackPointExtension></gpxtpx:TrackPointExtension>
        </extensions>
      </trkpt>
      <trkpt lat="22.75001" lon="113.939877">
        <ele>50.59</ele>
        <time>2026-08-29T10:10:12Z</time>
        <extensions>
          <gpxtpx:TrackPointExtension></gpxtpx:TrackPointExtension>
        </extensions>
      </trkpt>
      <trkpt lat="22.750032" lon="113.939989">
        <ele>50.98</ele>
        <time>2026-08-29T10:10:17Z</time>
        <extensions>
          <gpxtpx:TrackPointExtension></gpxtpx:TrackPointExtension>
        </extensions>
      </trkpt>
      <trkpt lat="22.750042" lon="113.94009">
        <ele>51.1</ele>
        <time>2026-08-29T10:10:22Z</time>
        <extensions>
          <gpxtpx:TrackPointExtension></gpxtpx:TrackPointExtension>
        </extensions>
      </trkpt>
      <trkpt lat="22.749989" lon="113.940198">
        <ele>50.85</ele>
        <time>2026-08-29T10:10:27Z</time>
        <extensions>
          <gpxtpx:TrackPointExtension></gpxtpx:TrackPointExtension>
        </extensions>
      </trkpt>
      <trkpt lat="22.749996" lon="113.940324">
        <ele>50.65</ele>
        <time>2026-08-29T10:10:32Z</time>
        <extensions>
          <gpxtpx:TrackPointExtension></gpxtpx:TrackPointExtension>
        </extensions>
      </trkpt>
      <trkpt lat="22.749954" lon="113.940416">
        <ele>50.3</ele>
        <time>2026-08-29T10:10:37Z</time>
        <extensions>
          <gpxtpx:TrackPointExtension></gpxtpx:TrackPointExtension>
        </extensions>
      </trkpt>
      <trkpt lat="22.74989" lon="113.940527">
        <ele>50.04</ele>
        <time>2026-08-29T10:10:42Z</time>
        <extensions>
          <gpxtpx:TrackPointExtension></gpxtpx:TrackPointExtension>
        </extensions>
      </trkpt>
      <trkpt lat="22.749813" lon="113.940652">
        <ele>49.73</ele>
        <time>2026-08-29T10:10:47Z</time>
        <extensions>
          <gpxtpx:TrackPointExtension></gpxtpx:TrackPointExtension>
        </extensions>
      </trkpt>
      <trkpt lat="22.749716" lon="113.940765">
        <ele>49.51</ele>
        <time>2026-08-29T10:10:52Z</time>
        <extensions>
          <gpxtpx:TrackPointExtension></gpxtpx:TrackPointExtension>
        </extensions>
      </trkpt>
      <trkpt lat="22.749637" lon="113.940897">
        <ele>49.4</ele>
        <time>2026-08-29T10:10:57Z</time>
        <extensions>
          <gpxtpx:TrackPointExtension></gpxtpx:TrackPointExtension>
        </extensions>
      </trkpt>
      <trkpt lat="22.749561" lon="113.941034">
        <ele>49.54</ele>
        <time>2026-08-29T10:11:02Z</time>
        <extensions>
          <gpxtpx:TrackPointExtension></gpxtpx:TrackPointExtension>
        </extensions>
      </trkpt>
      <trkpt lat="22.749456" lon="113.941244">
        <ele>49.66</ele>
        <time>2026-08-29T10:11:07Z</time>
        <extensions>
          <gpxtpx:TrackPointExtension></gpxtpx:TrackPointExtension>
        </extensions>
      </trkpt>
      <trkpt lat="22.749438" lon="113.941284">
        <ele>49.78</ele>
        <time>2026-08-29T10:11:12Z</time>
        <extensions>
          <gpxtpx:TrackPointExtension></gpxtpx:TrackPointExtension>
        </extensions>
      </trkpt>
      <trkpt lat="22.749342" lon="113.941402">
        <ele>49.75</ele>
        <time>2026-08-29T10:11:17Z</time>
        <extensions>
          <gpxtpx:TrackPointExtension></gpxtpx:TrackPointExtension>
        </extensions>
      </trkpt>
      <trkpt lat="22.749315" lon="113.941525">
        <ele>49.51</ele>
        <time>2026-08-29T10:11:22Z</time>
        <extensions>
          <gpxtpx:TrackPointExtension></gpxtpx:TrackPointExtension>
        </extensions>
      </trkpt>
      <trkpt lat="22.749256" lon="113.941652">
        <ele>49.37</ele>
        <time>2026-08-29T10:11:27Z</time>
        <extensions>
          <gpxtpx:TrackPointExtension></gpxtpx:TrackPointExtension>
        </extensions>
      </trkpt>
      <trkpt lat="22.749215" lon="113.941805">
        <ele>49.27</ele>
        <time>2026-08-29T10:11:32Z</time>
        <extensions>
          <gpxtpx:TrackPointExtension></gpxtpx:TrackPointExtension>
        </extensions>
      </trkpt>
      <trkpt lat="22.749188" lon="113.941951">
        <ele>49.07</ele>
        <time>2026-08-29T10:11:37Z</time>
        <extensions>
          <gpxtpx:TrackPointExtension></gpxtpx:TrackPointExtension>
        </extensions>
      </trkpt>
      <trkpt lat="22.749159" lon="113.942077">
        <ele>48.89</ele>
        <time>2026-08-29T10:11:42Z</time>
        <extensions>
          <gpxtpx:TrackPointExtension></gpxtpx:TrackPointExtension>
        </extensions>
      </trkpt>
      <trkpt lat="22.749133" lon="113.942207">
        <ele>48.75</ele>
        <time>2026-08-29T10:11:47Z</time>
        <extensions>
          <gpxtpx:TrackPointExtension></gpxtpx:TrackPointExtension>
        </extensions>
      </trkpt>
      <trkpt lat="22.749115" lon="113.942318">
        <ele>48.66</ele>
        <time>2026-08-29T10:11:52Z</time>
        <extensions>
          <gpxtpx:TrackPointExtension></gpxtpx:TrackPointExtension>
        </extensions>
      </trkpt>
      <trkpt lat="22.74913" lon="113.942499">
        <ele>48.67</ele>
        <time>2026-08-29T10:11:57Z</time>
        <extensions>
          <gpxtpx:TrackPointExtension></gpxtpx:TrackPointExtension>
        </extensions>
      </trkpt>
      <trkpt lat="22.749127" lon="113.94259">
        <ele>48.68</ele>
        <time>2026-08-29T10:12:02Z</time>
        <extensions>
          <gpxtpx:TrackPointExtension></gpxtpx:TrackPointExtension>
        </extensions>
      </trkpt>
      <trkpt lat="22.749167" lon="113.942727">
        <ele>48.69</ele>
        <time>2026-08-29T10:12:07Z</time>
        <extensions>
          <gpxtpx:TrackPointExtension></gpxtpx:TrackPointExtension>
        </extensions>
      </trkpt>
      <trkpt lat="22.749204" lon="113.942844">
        <ele>48.82</ele>
        <time>2026-08-29T10:12:12Z</time>
        <extensions>
          <gpxtpx:TrackPointExtension></gpxtpx:TrackPointExtension>
        </extensions>
      </trkpt>
      <trkpt lat="22.749214" lon="113.942966">
        <ele>48.77</ele>
        <time>2026-08-29T10:12:17Z</time>
        <extensions>
          <gpxtpx:TrackPointExtension></gpxtpx:TrackPointExtension>
        </extensions>
      </trkpt>
      <trkpt lat="22.749226" lon="113.943115">
        <ele>48.71</ele>
        <time>2026-08-29T10:12:22Z</time>
        <extensions>
          <gpxtpx:TrackPointExtension></gpxtpx:TrackPointExtension>
        </extensions>
      </trkpt>
      <trkpt lat="22.749284" lon="113.943231">
        <ele>48.58</ele>
        <time>2026-08-29T10:12:27Z</time>
        <extensions>
          <gpxtpx:TrackPointExtension></gpxtpx:TrackPointExtension>
        </extensions>
      </trkpt>
      <trkpt lat="22.749345" lon="113.943335">
        <ele>48.4</ele>
        <time>2026-08-29T10:12:32Z</time>
        <extensions>
          <gpxtpx:TrackPointExtension></gpxtpx:TrackPointExtension>
        </extensions>
      </trkpt>
      <trkpt lat="22.749436" lon="113.943435">
        <ele>48.27</ele>
        <time>2026-08-29T10:12:37Z</time>
        <extensions>
          <gpxtpx:TrackPointExtension></gpxtpx:TrackPointExtension>
        </extensions>
      </trkpt>
      <trkpt lat="22.749499" lon="113.943566">
        <ele>48.13</ele>
        <time>2026-08-29T10:12:42Z</time>
        <extensions>
          <gpxtpx:TrackPointExtension></gpxtpx:TrackPointExtension>
        </extensions>
      </trkpt>
      <trkpt lat="22.749605" lon="113.943669">
        <ele>47.94</ele>
        <time>2026-08-29T10:12:47Z</time>
        <extensions>
          <gpxtpx:TrackPointExtension></gpxtpx:TrackPointExtension>
        </extensions>
      </trkpt>
      <trkpt lat="22.749732" lon="113.943773">
        <ele>47.76</ele>
        <time>2026-08-29T10:12:52Z</time>
        <extensions>
          <gpxtpx:TrackPointExtension></gpxtpx:TrackPointExtension>
        </extensions>
      </trkpt>
      <trkpt lat="22.74995" lon="113.943845">
        <ele>47.85</ele>
        <time>2026-08-29T10:12:57Z</time>
        <extensions>
          <gpxtpx:TrackPointExtension></gpxtpx:TrackPointExtension>
        </extensions>
      </trkpt>
      <trkpt lat="22.749973" lon="113.943844">
        <ele>47.99</ele>
        <time>2026-08-29T10:13:02Z</time>
        <extensions>
          <gpxtpx:TrackPointExtension></gpxtpx:TrackPointExtension>
        </extensions>
      </trkpt>
      <trkpt lat="22.750096" lon="113.943884">
        <ele>48.11</ele>
        <time>2026-08-29T10:13:07Z</time>
        <extensions>
          <gpxtpx:TrackPointExtension></gpxtpx:TrackPointExtension>
        </extensions>
      </trkpt>
      <trkpt lat="22.750226" lon="113.943884">
        <ele>48.22</ele>
        <time>2026-08-29T10:13:12Z</time>
        <extensions>
          <gpxtpx:TrackPointExtension></gpxtpx:TrackPointExtension>
        </extensions>
      </trkpt>
      <trkpt lat="22.750351" lon="113.943914">
        <ele>48.31</ele>
        <time>2026-08-29T10:13:17Z</time>
        <extensions>
          <gpxtpx:TrackPointExtension></gpxtpx:TrackPointExtension>
        </extensions>
      </trkpt>
      <trkpt lat="22.750492" lon="113.9439">
        <ele>47.98</ele>
        <time>2026-08-29T10:13:22Z</time>
        <extensions>
          <gpxtpx:TrackPointExtension></gpxtpx:TrackPointExtension>
        </extensions>
      </trkpt>
      <trkpt lat="22.750634" lon="113.943929">
        <ele>46.7</ele>
        <time>2026-08-29T10:13:27Z</time>
        <extensions>
          <gpxtpx:TrackPointExtension></gpxtpx:TrackPointExtension>
        </extensions>
      </trkpt>
      <trkpt lat="22.750751" lon="113.943867">
        <ele>45.72</ele>
        <time>2026-08-29T10:13:32Z</time>
        <extensions>
          <gpxtpx:TrackPointExtension></gpxtpx:TrackPointExtension>
        </extensions>
      </trkpt>
      <trkpt lat="22.750767" lon="113.943644">
        <ele>46.67</ele>
        <time>2026-08-29T10:13:37Z</time>
        <extensions>
          <gpxtpx:TrackPointExtension></gpxtpx:TrackPointExtension>
        </extensions>
      </trkpt>
      <trkpt lat="22.750764" lon="113.943602">
        <ele>47.51</ele>
        <time>2026-08-29T10:13:42Z</time>
        <extensions>
          <gpxtpx:TrackPointExtension></gpxtpx:TrackPointExtension>
        </extensions>
      </trkpt>
      <trkpt lat="22.750753" lon="113.943481">
        <ele>48.26</ele>
        <time>2026-08-29T10:13:47Z</time>
        <extensions>
          <gpxtpx:TrackPointExtension></gpxtpx:TrackPointExtension>
        </extensions>
      </trkpt>
      <trkpt lat="22.750736" lon="113.943339">
        <ele>49.06</ele>
        <time>2026-08-29T10:13:52Z</time>
        <extensions>
          <gpxtpx:TrackPointExtension></gpxtpx:TrackPointExtension>
        </extensions>
      </trkpt>
      <trkpt lat="22.750707" lon="113.943241">
        <ele>49.66</ele>
        <time>2026-08-29T10:13:57Z</time>
        <extensions>
          <gpxtpx:TrackPointExtension></gpxtpx:TrackPointExtension>
        </extensions>
      </trkpt>
      <trkpt lat="22.75073" lon="113.94313">
        <ele>49.98</ele>
        <time>2026-08-29T10:14:02Z</time>
        <extensions>
          <gpxtpx:TrackPointExtension></gpxtpx:TrackPointExtension>
        </extensions>
      </trkpt>
      <trkpt lat="22.750764" lon="113.943014">
        <ele>49.95</ele>
        <time>2026-08-29T10:14:07Z</time>
        <extensions>
          <gpxtpx:TrackPointExtension></gpxtpx:TrackPointExtension>
        </extensions>
      </trkpt>
      <trkpt lat="22.750857" lon="113.942904">
        <ele>49.83</ele>
        <time>2026-08-29T10:14:12Z</time>
        <extensions>
          <gpxtpx:TrackPointExtension></gpxtpx:TrackPointExtension>
        </extensions>
      </trkpt>
      <trkpt lat="22.750953" lon="113.942797">
        <ele>49.79</ele>
        <time>2026-08-29T10:14:17Z</time>
        <extensions>
          <gpxtpx:TrackPointExtension></gpxtpx:TrackPointExtension>
        </extensions>
      </trkpt>
      <trkpt lat="22.751045" lon="113.942675">
        <ele>49.59</ele>
        <time>2026-08-29T10:14:22Z</time>
        <extensions>
          <gpxtpx:TrackPointExtension></gpxtpx:TrackPointExtension>
        </extensions>
      </trkpt>
      <trkpt lat="22.751119" lon="113.942575">
        <ele>49.42</ele>
        <time>2026-08-29T10:14:27Z</time>
        <extensions>
          <gpxtpx:TrackPointExtension></gpxtpx:TrackPointExtension>
        </extensions>
      </trkpt>
      <trkpt lat="22.751188" lon="113.942451">
        <ele>49.4</ele>
        <time>2026-08-29T10:14:32Z</time>
        <extensions>
          <gpxtpx:TrackPointExtension></gpxtpx:TrackPointExtension>
        </extensions>
      </trkpt>
      <trkpt lat="22.751278" lon="113.942311">
        <ele>49.4</ele>
        <time>2026-08-29T10:14:37Z</time>
        <extensions>
          <gpxtpx:TrackPointExtension></gpxtpx:TrackPointExtension>
        </extensions>
      </trkpt>
      <trkpt lat="22.75137" lon="113.942193">
        <ele>49.35</ele>
        <time>2026-08-29T10:14:42Z</time>
        <extensions>
          <gpxtpx:TrackPointExtension></gpxtpx:TrackPointExtension>
        </extensions>
      </trkpt>
      <trkpt lat="22.751476" lon="113.942154">
        <ele>49.37</ele>
        <time>2026-08-29T10:14:47Z</time>
        <extensions>
          <gpxtpx:TrackPointExtension></gpxtpx:TrackPointExtension>
        </extensions>
      </trkpt>
      <trkpt lat="22.751571" lon="113.942171">
        <ele>49.48</ele>
        <time>2026-08-29T10:14:52Z</time>
        <extensions>
          <gpxtpx:TrackPointExtension></gpxtpx:TrackPointExtension>
        </extensions>
      </trkpt>
      <trkpt lat="22.751676" lon="113.942246">
        <ele>49.56</ele>
        <time>2026-08-29T10:14:57Z</time>
        <extensions>
          <gpxtpx:TrackPointExtension></gpxtpx:TrackPointExtension>
        </extensions>
      </trkpt>
      <trkpt lat="22.751807" lon="113.942293">
        <ele>49.66</ele>
        <time>2026-08-29T10:15:02Z</time>
        <extensions>
          <gpxtpx:TrackPointExtension></gpxtpx:TrackPointExtension>
        </extensions>
      </trkpt>
      <trkpt lat="22.751938" lon="113.94231">
        <ele>49.75</ele>
        <time>2026-08-29T10:15:07Z</time>
        <extensions>
          <gpxtpx:TrackPointExtension></gpxtpx:TrackPointExtension>
        </extensions>
      </trkpt>
      <trkpt lat="22.752066" lon="113.942318">
        <ele>49.79</ele>
        <time>2026-08-29T10:15:12Z</time>
        <extensions>
          <gpxtpx:TrackPointExtension></gpxtpx:TrackPointExtension>
        </extensions>
      </trkpt>
      <trkpt lat="22.752195" lon="113.942309">
        <ele>49.86</ele>
        <time>2026-08-29T10:15:17Z</time>
        <extensions>
          <gpxtpx:TrackPointExtension></gpxtpx:TrackPointExtension>
        </extensions>
      </trkpt>
      <trkpt lat="22.752345" lon="113.942298">
        <ele>49.93</ele>
        <time>2026-08-29T10:15:22Z</time>
        <extensions>
          <gpxtpx:TrackPointExtension></gpxtpx:TrackPointExtension>
        </extensions>
      </trkpt>
      <trkpt lat="22.752484" lon="113.942293">
        <ele>49.96</ele>
        <time>2026-08-29T10:15:27Z</time>
        <extensions>
          <gpxtpx:TrackPointExtension></gpxtpx:TrackPointExtension>
        </extensions>
      </trkpt>
      <trkpt lat="22.752638" lon="113.942243">
        <ele>49.99</ele>
        <time>2026-08-29T10:15:32Z</time>
        <extensions>
          <gpxtpx:TrackPointExtension></gpxtpx:TrackPointExtension>
        </extensions>
      </trkpt>
      <trkpt lat="22.752818" lon="113.94215">
        <ele>50.03</ele>
        <time>2026-08-29T10:15:37Z</time>
        <extensions>
          <gpxtpx:TrackPointExtension></gpxtpx:TrackPointExtension>
        </extensions>
      </trkpt>
      <trkpt lat="22.752879" lon="113.942087">
        <ele>49.88</ele>
        <time>2026-08-29T10:15:42Z</time>
        <extensions>
          <gpxtpx:TrackPointExtension></gpxtpx:TrackPointExtension>
        </extensions>
      </trkpt>
      <trkpt lat="22.752915" lon="113.941973">
        <ele>49.54</ele>
        <time>2026-08-29T10:15:47Z</time>
        <extensions>
          <gpxtpx:TrackPointExtension></gpxtpx:TrackPointExtension>
        </extensions>
      </trkpt>
      <trkpt lat="22.752994" lon="113.941886">
        <ele>48.36</ele>
        <time>2026-08-29T10:15:56Z</time>
        <extensions>
          <gpxtpx:TrackPointExtension></gpxtpx:TrackPointExtension>
        </extensions>
      </trkpt>
    </trkseg>
  </trk>
</gpx>